{"type":"FeatureCollection","features":[{"type":"Feature","properties":{"name":"Hongze Hu","name_en":"Hongze Lake","name_zht":"\u5b8f\u6fa4\u6e56"},"geometry":{"type":"Polygon","coordinates":[[[118.573535,33.14082],[118.491699,32.998047],[118.430762,32.972754],[118.266602,32.924805],[118.227051,32.896631],[118.183203,32.884766],[118.171191,32.906152],[118.191895,32.94126],[118.180859,32.971289],[118.14209,32.986133],[118.088184,32.95835],[118.066211,32.935547],[118.049902,32.963818],[118.08418,33.005469],[118.130176,33.027783],[118.225781,32.990576],[118.240332,33.008447],[118.234277,33.046289],[118.182324,33.139355],[117.978516,33.142334],[117.914648,33.125977],[117.891602,33.064551],[117.838184,33.038379],[117.808984,33.048096],[117.851367,33.062158],[117.874414,33.093213],[117.886328,33.157178],[117.911621,33.181006],[117.991504,33.187207],[118.114258,33.214697],[118.174902,33.210205],[118.226562,33.142871],[118.274902,33.044775],[118.340234,32.994238],[118.407227,33.009863],[118.416602,33.038184],[118.459863,33.098633],[118.470117,33.127783],[118.454492,33.160156],[118.322168,33.182471],[118.249219,33.221143],[118.23291,33.288086],[118.273047,33.267285],[118.318359,33.268359],[118.391699,33.338037],[118.446484,33.406836],[118.490039,33.401465],[118.57002,33.371875],[118.607129,33.376025],[118.546973,33.436914],[118.487695,33.539844],[118.493066,33.622656],[118.544238,33.644629],[118.571191,33.619824],[118.608398,33.514893],[118.663574,33.463086],[118.774316,33.442773],[118.860547,33.356543],[118.860547,33.338672],[118.833789,33.304443],[118.778223,33.176367],[118.715527,33.089307],[118.680859,33.076514],[118.678418,33.12417],[118.65293,33.173828],[118.604688,33.17207],[118.573535,33.14082]]]}},{"type":"Feature","properties":{"name":"Qinghai Hu","name_en":"Qinghai","name_zht":"\u9752\u6d77\u6e56"},"geometry":{"type":"Polygon","coordinates":[[[100.745703,36.781104],[100.722656,36.74502],[100.722559,36.672803],[100.704297,36.589355],[100.627539,36.556836],[100.522949,36.580176],[100.430566,36.641064],[100.227734,36.644678],[99.958496,36.678711],[99.827441,36.739404],[99.700391,36.853125],[99.649902,36.911279],[99.680859,36.947412],[99.816406,36.955371],[99.834473,36.988037],[99.804297,37.066602],[99.787207,37.149023],[99.836328,37.182471],[99.95625,37.217822],[100.104297,37.201562],[100.274512,37.150244],[100.447852,37.025195],[100.585547,36.902637],[100.752734,36.810889],[100.745703,36.781104]]]}},{"type":"Feature","properties":{"name":"Hulun Nuur","name_en":"Hulun","name_zht":"\u547c\u502b\u6e56"},"geometry":{"type":"Polygon","coordinates":[[[117.114258,48.561035],[117.088574,48.579102],[117.105469,48.629443],[117.095508,48.704834],[117.014063,48.786426],[116.988477,48.841016],[117.058789,48.906641],[117.225195,49.002539],[117.389453,49.139111],[117.529004,49.269971],[117.635742,49.342139],[117.690137,49.350781],[117.706934,49.321875],[117.688086,49.274268],[117.686133,49.220361],[117.716211,49.180078],[117.776367,49.160742],[117.812109,49.125195],[117.899316,49.110254],[118.007227,49.105273],[118.034668,49.071484],[117.964258,49.03501],[117.875391,49.033447],[117.823828,49.05918],[117.772266,49.058789],[117.732813,49.029687],[117.715918,48.986035],[117.515527,48.846484],[117.327637,48.694238],[117.309766,48.636035],[117.228906,48.585254],[117.114258,48.561035]]]}},{"type":"Feature","properties":{"name":"Tai Hu","name_en":"Tai","name_zht":"\u592a\u6e56"},"geometry":{"type":"Polygon","coordinates":[[[120.394434,30.970605],[120.236035,30.935986],[120.103223,30.973291],[119.978027,31.091064],[119.939355,31.252979],[119.987402,31.391797],[120.108203,31.491797],[120.218555,31.531836],[120.254395,31.509961],[120.251074,31.475488],[120.270898,31.444629],[120.380371,31.429053],[120.372266,31.385693],[120.331348,31.349512],[120.326465,31.319727],[120.391406,31.227051],[120.430664,31.200195],[120.440234,31.15332],[120.394727,31.100391],[120.423047,31.083057],[120.460742,31.080811],[120.539941,31.1271],[120.60166,31.087451],[120.394434,30.970605]]]}},{"type":"Feature","properties":{"name":"Poyang Hu","name_en":"Poyang","name_zht":"\u9131\u967d\u6e56"},"geometry":{"type":"Polygon","coordinates":[[[116.708594,29.102393],[116.634668,29.101904],[116.617773,29.115234],[116.521094,29.143262],[116.495508,29.122412],[116.477246,29.043018],[116.503223,28.953027],[116.530078,28.894482],[116.536621,28.845459],[116.511523,28.803809],[116.468457,28.805176],[116.441406,28.859521],[116.418066,28.879687],[116.40918,28.905273],[116.347754,28.905713],[116.329102,28.960938],[116.097266,29.105908],[115.965039,29.311377],[116.025977,29.45293],[116.090625,29.555273],[116.11748,29.653125],[116.099609,29.687988],[116.082324,29.702539],[116.113086,29.725879],[116.197559,29.751367],[116.229688,29.698389],[116.234766,29.665869],[116.207422,29.64502],[116.198926,29.603516],[116.158984,29.518848],[116.144531,29.453564],[116.109766,29.426611],[116.115137,29.401855],[116.142773,29.386475],[116.187891,29.382031],[116.196094,29.361572],[116.152832,29.33418],[116.136621,29.309326],[116.15293,29.252588],[116.310449,29.231543],[116.343359,29.23374],[116.368457,29.22251],[116.358008,29.185645],[116.361914,29.15376],[116.406836,29.176221],[116.439941,29.236133],[116.468652,29.250098],[116.640137,29.23667],[116.663672,29.226123],[116.66084,29.190234],[116.673535,29.158691],[116.705762,29.13623],[116.708594,29.102393]]]}},{"type":"Feature","properties":{"name":"Daguan Hu","name_en":"Daguan Lake","name_zht":"\u5927\u5b98\u6e56"},"geometry":{"type":"Polygon","coordinates":[[[116.441699,30.077246],[116.519922,29.988232],[116.497949,29.964404],[116.388086,29.965967],[116.289941,29.993604],[116.258789,30.048096],[116.256934,30.093506],[116.281055,30.079248],[116.327051,30.086816],[116.386035,30.069287],[116.441699,30.077246]]]}},{"type":"Feature","properties":{"name":"Long Hu","name_en":"Longgan","name_zht":"\u9f99\u611f\u6e56"},"geometry":{"type":"Polygon","coordinates":[[[116.241699,30.032129],[116.259766,29.976367],[116.253613,29.935059],[116.211133,29.907617],[116.044141,29.881104],[115.977441,29.95166],[115.985352,30.016064],[116.073242,30.000391],[116.118262,30.000391],[116.150391,30.061035],[116.195117,30.0375],[116.241699,30.032129]]]}},{"type":"Feature","properties":{"name":"Liangzi Hu","name_en":"Liangzi","name_zht":"\u6881\u5b50\u6e56"},"geometry":{"type":"Polygon","coordinates":[[[114.350488,30.195996],[114.394922,30.23623],[114.405859,30.267822],[114.443555,30.285156],[114.495801,30.289404],[114.501172,30.310547],[114.474414,30.333252],[114.458008,30.364404],[114.501172,30.366211],[114.602832,30.299512],[114.62334,30.257666],[114.641699,30.13291],[114.623438,30.095898],[114.54248,30.188184],[114.50918,30.193896],[114.473828,30.158496],[114.445215,30.084668],[114.408398,30.106445],[114.365234,30.165137],[114.350488,30.195996]]]}},{"type":"Feature","properties":{"name":"Har Us Nuur","name_en":"Khar-Us","name_zht":"\u54c8\u723e\u70cf\u8607\u6e56"},"geometry":{"type":"Polygon","coordinates":[[[92.621777,48.097803],[92.442187,48.030225],[92.353516,47.964209],[92.27998,47.850635],[92.200293,47.768652],[92.08418,47.815723],[92.0,47.921475477506426],[92.0,48.01793569084449],[92.105078,48.054395],[92.248633,48.130078],[92.25,48.263379],[92.287012,48.352197],[92.424902,48.360107],[92.483203,48.338916],[92.401855,48.237402],[92.404688,48.156396],[92.479688,48.138135],[92.543652,48.138379],[92.643359,48.193115],[92.638281,48.32998],[92.732813,48.310449],[92.801953,48.25293],[92.786621,48.178174],[92.621777,48.097803]]]}},{"type":"Feature","properties":{"name":"Nam Ngum Reservoir","name_en":"Nam Ngum Dam","name_zht":"\u5854\u4ec0\u5e79\u65e5\u672c\u6eef\u7559\u8005\u5893\u5730"},"geometry":{"type":"Polygon","coordinates":[[[102.825879,18.526611],[102.719434,18.497266],[102.646484,18.449902],[102.614551,18.476465],[102.570898,18.559814],[102.52666,18.669043],[102.505859,18.745703],[102.526953,18.758691],[102.560645,18.735156],[102.581836,18.695996],[102.659375,18.662256],[102.74668,18.650342],[102.75332,18.598779],[102.791211,18.568652],[102.894141,18.54126],[102.878516,18.52666],[102.825879,18.526611]]]}},{"type":"Feature","properties":{"name":"Gaoyou Hu","name_en":"Gaoyou","name_zht":"\u9ad8\u90f5\u6e56"},"geometry":{"type":"Polygon","coordinates":[[[119.391504,32.75127],[119.299805,32.747949],[119.253418,32.736182],[119.200977,32.690967],[119.173438,32.685742],[119.125391,32.798047],[119.079395,32.854541],[119.08418,32.865967],[119.130273,32.877197],[119.228516,32.882178],[119.241895,32.896436],[119.240723,32.918604],[119.253125,32.943115],[119.244922,33.013184],[119.263965,33.033984],[119.296484,33.041309],[119.314453,33.054395],[119.303125,33.085156],[119.236914,33.154297],[119.179688,33.148242],[119.153809,33.064502],[119.099219,33.026953],[118.965625,33.037695],[118.906543,33.058154],[118.881836,33.077344],[119.059375,33.05791],[119.102246,33.068994],[119.13457,33.144092],[119.169922,33.186084],[119.254102,33.200781],[119.303711,33.164014],[119.349023,33.077783],[119.345703,33.023633],[119.372266,33.000391],[119.396973,32.91582],[119.406836,32.793555],[119.391504,32.75127]]]}},{"type":"Feature","properties":{"name":"Po Hu","name_en":"Po","name_zht":"\u6cca\u6e56"},"geometry":{"type":"Polygon","coordinates":[[[116.400781,30.117627],[116.373438,30.160645],[116.316992,30.203223],[116.314453,30.230273],[116.371484,30.244141],[116.390234,30.223682],[116.443359,30.206934],[116.539062,30.206787],[116.54043,30.180029],[116.526953,30.149121],[116.525586,30.089307],[116.50625,30.078174],[116.468359,30.10376],[116.400781,30.117627]]]}},{"type":"Feature","properties":{"name":"Buyr Nuur","name_en":"Buir","name_zht":"\u8c9d\u723e\u6e56"},"geometry":{"type":"Polygon","coordinates":[[[117.58584,47.671143],[117.529004,47.738672],[117.530762,47.776416],[117.569531,47.835498],[117.6375,47.90127],[117.70918,47.94751],[117.764453,47.961182],[117.801074,47.950049],[117.84082,47.910498],[117.868555,47.864844],[117.855859,47.825439],[117.806055,47.772412],[117.729199,47.718262],[117.654883,47.67998],[117.606152,47.666016],[117.58584,47.671143]]]}},{"type":"Feature","properties":{"name":"Shijiu Hu","name_en":"Shijiu","name_zht":"\u77f3\u81fc\u6e56"},"geometry":{"type":"Polygon","coordinates":[[[118.77998,31.409375],[118.747363,31.458887],[118.742773,31.492236],[118.723535,31.522217],[118.722949,31.541699],[118.941211,31.554102],[118.963965,31.503369],[118.960156,31.464795],[118.85,31.392578],[118.77998,31.409375]]]}},{"type":"Feature","properties":{"name":"Hong Hu","name_en":"Hong","name_zht":"\u6d2a\u6e56"},"geometry":{"type":"Polygon","coordinates":[[[113.454004,29.914404],[113.36875,29.785205],[113.34043,29.759863],[113.312207,29.749219],[113.275098,29.779785],[113.237305,29.847803],[113.230273,29.892773],[113.248633,29.904053],[113.302246,29.888281],[113.33125,29.893652],[113.361914,29.949316],[113.406152,29.952832],[113.45127,29.940234],[113.454004,29.914404]]]}},{"type":"Feature","properties":{"name":"Chao Hu","name_en":"Chao","name_zht":"\u5de2\u6e56"},"geometry":{"type":"Polygon","coordinates":[[[117.911719,31.521582],[117.829883,31.569824],[117.784473,31.57915],[117.623438,31.454541],[117.563086,31.445117],[117.467871,31.466602],[117.317187,31.59165],[117.297168,31.649805],[117.31543,31.697461],[117.366309,31.708789],[117.412793,31.694141],[117.448047,31.610059],[117.486914,31.593164],[117.543066,31.590918],[117.593945,31.609424],[117.651563,31.654297],[117.733301,31.659668],[117.809766,31.620801],[117.918652,31.550586],[117.941211,31.520508],[117.911719,31.521582]]]}},{"type":"Feature","properties":{},"geometry":{"type":"Polygon","coordinates":[[[114.838867,30.28667],[114.739258,30.279443],[114.759961,30.237988],[114.780859,30.220654],[114.778027,30.215088],[114.704297,30.212402],[114.678906,30.228076],[114.67373,30.300439],[114.712891,30.329639],[114.76377,30.345068],[114.805664,30.34541],[114.833789,30.327148],[114.846094,30.302393],[114.838867,30.28667]]]}},{"type":"Feature","properties":{},"geometry":{"type":"Polygon","coordinates":[[[114.585742,30.663184],[114.639941,30.659521],[114.649414,30.673877],[114.645996,30.714844],[114.70332,30.7354],[114.719434,30.751074],[114.745898,30.737598],[114.781348,30.700635],[114.786328,30.6625],[114.696484,30.612744],[114.621875,30.60835],[114.583789,30.650488],[114.585742,30.663184]]]}},{"type":"Feature","properties":{"name":"Weishan Hu","name_en":"Nansi","name_zht":"\u5fae\u5c71\u6e56"},"geometry":{"type":"Polygon","coordinates":[[[117.326172,34.587354],[117.249707,34.501611],[117.209863,34.498096],[117.173828,34.543359],[117.141211,34.612012],[117.12832,34.6625],[117.139453,34.725391],[117.178906,34.719336],[117.266406,34.66543],[117.317773,34.621436],[117.326172,34.587354]]]}},{"type":"Feature","properties":{},"geometry":{"type":"Polygon","coordinates":[[[114.600781,30.343652],[114.482227,30.430957],[114.494922,30.438721],[114.533203,30.434961],[114.575488,30.404932],[114.600977,30.398779],[114.630566,30.420166],[114.63291,30.439893],[114.629199,30.455957],[114.607031,30.483154],[114.608594,30.495605],[114.640039,30.486475],[114.666016,30.490039],[114.701074,30.512158],[114.738672,30.494434],[114.756445,30.477246],[114.747559,30.443115],[114.752539,30.429004],[114.683008,30.39707],[114.655078,30.345605],[114.622852,30.338623],[114.600781,30.343652]]]}},{"type":"Feature","properties":{"name":"Huangtang Hu","name_en":"Futou Lake","name_zht":"\u9ec3\u5858\u6e56"},"geometry":{"type":"Polygon","coordinates":[[[114.289258,30.00249],[114.252148,29.972168],[114.24375,29.937744],[114.264258,29.915234],[114.255078,29.906152],[114.217676,29.901318],[114.170703,29.920947],[114.143359,29.9875],[114.14668,30.08252],[114.176953,30.113867],[114.218164,30.14082],[114.248828,30.140576],[114.237305,30.083594],[114.252734,30.044873],[114.294141,30.042969],[114.300781,30.024902],[114.289258,30.00249]]]}},{"type":"Feature","properties":{},"geometry":{"type":"Polygon","coordinates":[[[114.136816,29.862402],[114.113867,29.883203],[114.087207,29.93374],[114.062598,29.92749],[114.029492,29.898047],[113.990234,29.878662],[113.968652,29.880176],[113.962891,29.892383],[114.003223,29.942383],[113.996191,29.95918],[113.943652,29.966455],[113.940625,29.981006],[114.018555,30.001074],[114.073633,30.026807],[114.100879,30.022461],[114.157617,29.871826],[114.136816,29.862402]]]}},{"type":"Feature","properties":{"name":"Khyargas Nuur","name_en":"Khyargas Nuur","name_zht":"\u5409\u723e\u5409\u65af\u6e56"},"geometry":{"type":"Polygon","coordinates":[[[93.779395,49.103369],[93.397461,48.990527],[93.24082,49.097021],[93.179297,49.111816],[92.864941,49.225439],[92.832324,49.253174],[92.83457,49.282275],[92.863867,49.306201],[93.059277,49.322363],[93.25957,49.292187],[93.470605,49.20498],[93.515918,49.212646],[93.560156,49.205908],[93.654492,49.214893],[93.723047,49.190283],[93.785937,49.158496],[93.799414,49.129004],[93.779395,49.103369]]]}},{"type":"Feature","properties":{"name":"Ngoring Hu","name_en":"Ngoring","name_zht":"\u9102\u9675\u6e56"},"geometry":{"type":"Polygon","coordinates":[[[97.861328,34.822949],[97.694727,34.830957],[97.683203,34.791553],[97.647656,34.787939],[97.602637,34.797754],[97.575195,34.824902],[97.54707,34.875977],[97.55459,34.901904],[97.582617,34.929395],[97.624902,34.953174],[97.643945,34.978467],[97.636133,35.002832],[97.650586,35.027539],[97.734863,35.080469],[97.762891,35.088086],[97.794043,35.033008],[97.801465,34.932227],[97.887012,34.838184],[97.861328,34.822949]]]}},{"type":"Feature","properties":{"name":"Gyaring Hu","name_en":"Gyaring","name_zht":"\u624e\u9675\u6e56"},"geometry":{"type":"Polygon","coordinates":[[[97.467676,34.975732],[97.359961,34.865479],[97.288281,34.835449],[97.230469,34.82583],[97.08418,34.906836],[97.062402,34.978613],[97.066504,34.997266],[97.118066,35.007812],[97.23125,35.02251],[97.350977,35.019678],[97.467676,34.975732]]]}}]}