{"type":"FeatureCollection","features":[{"type":"Feature","properties":{"river":"fenshui","rank":3},"geometry":{"type":"LineString","coordinates":[[112.075613,38.861274],[112.09669,38.789252],[112.108816,38.771674],[112.123953,38.726345],[112.106293,38.688992],[112.100352,38.652696],[112.012706,38.579169],[111.99822,38.559027],[111.983328,38.460273],[111.963145,38.415473],[111.867117,38.284939],[111.84962,38.241156],[111.837494,38.185899],[111.837413,38.139228],[111.856944,38.097235],[111.904307,38.05622],[111.940847,38.037706],[111.97991,38.002753],[111.995616,37.995917],[112.014171,38.001003],[112.023529,37.983181],[112.060557,37.951768],[112.09962,37.939643],[112.14796,37.911241],[112.172374,37.906033],[112.212576,37.925238],[112.296479,37.93948],[112.336925,37.960028],[112.378673,38.008368],[112.394216,38.015245],[112.415457,38.009589],[112.429779,37.983913],[112.466075,37.97366],[112.492442,37.944892],[112.511811,37.905056],[112.528087,37.815985],[112.5206,37.774441],[112.534923,37.730333],[112.528087,37.710273],[112.472992,37.686306],[112.408376,37.646186],[112.3956,37.625271],[112.373546,37.607449],[112.370372,37.562771],[112.334727,37.518866],[112.32252,37.478298],[112.240245,37.402167],[112.205333,37.342963],[112.158702,37.309516],[112.062511,37.17239],[112.000662,37.147325],[111.964692,37.139675],[111.904307,37.103461],[111.857188,37.04975],[111.842459,37.018826],[111.795014,36.980536],[111.781342,36.945828],[111.75058,36.929023],[111.740245,36.909735],[111.755056,36.872341],[111.753998,36.849555],[111.740001,36.838162],[111.695323,36.82331],[111.656505,36.769151],[111.665294,36.733507],[111.671804,36.614814],[111.696544,36.598822],[111.705658,36.575873],[111.685802,36.534247],[111.689708,36.480251],[111.67628,36.462348],[111.66155,36.45421],[111.659109,36.44245],[111.657807,36.404568],[111.649669,36.37755],[111.662364,36.289903],[111.657807,36.274237],[111.599539,36.213406],[111.500255,36.130805],[111.490001,36.115098],[111.481049,36.072577],[111.448416,36.058295],[111.432546,36.027167],[111.402761,36.001003],[111.395763,35.98371],[111.412608,35.952094],[111.405528,35.930243],[111.422455,35.904568],[111.405935,35.827989],[111.404552,35.804958],[111.412852,35.773139],[111.399669,35.762397],[111.390391,35.726142],[111.353119,35.678331],[111.296641,35.669867],[111.275483,35.630927],[111.263194,35.620795],[111.229584,35.614203],[111.178722,35.568468],[111.167491,35.566677],[111.158214,35.575954],[111.088634,35.588935],[110.990001,35.57864],[110.958995,35.588935],[110.921153,35.572943],[110.782481,35.557888],[110.739268,35.568468],[110.721609,35.564032],[110.581554,35.481879],[110.554861,35.458604]]}},{"type":"Feature","properties":{"river":"changjiang","rank":1},"geometry":{"type":"LineString","coordinates":[[92.0,34.136542],[92.035167,34.142279],[92.064952,34.18769],[92.09905,34.19713],[92.148448,34.238959],[92.216319,34.250027],[92.233979,34.242703],[92.325857,34.238959],[92.511485,34.211697],[92.58546,34.210313],[92.604015,34.201117],[92.631277,34.174099],[92.648692,34.129096],[92.680593,34.100938],[92.722585,34.087226],[92.813243,34.081326],[92.992768,34.100287]]}},{"type":"Feature","properties":{"river":"changjiang","rank":1},"geometry":{"type":"LineString","coordinates":[[92.992768,34.100287],[93.011729,34.108588],[93.03419,34.163031],[93.070323,34.178819],[93.128429,34.225898],[93.170421,34.232286],[93.348155,34.232123],[93.392019,34.218451],[93.477306,34.232123],[93.542979,34.220649],[93.662852,34.211697],[93.748627,34.232286],[93.792491,34.251817],[93.813731,34.273057],[93.80657,34.305732],[93.811127,34.316718],[93.849864,34.327338],[93.90032,34.403673],[93.90683,34.44127],[93.917247,34.453559],[93.950206,34.472357],[93.973155,34.4713],[94.001069,34.491767],[94.068126,34.561347],[94.120616,34.571479],[94.169444,34.589057],[94.264578,34.583767],[94.286632,34.602078],[94.307628,34.641181],[94.337169,34.65115],[94.351166,34.670966],[94.362315,34.656684],[94.375499,34.67654],[94.392345,34.684394],[94.433686,34.684597],[94.475841,34.695339],[94.496755,34.705186],[94.521414,34.744696],[94.558442,34.764024],[94.602468,34.767524],[94.652354,34.741278],[94.883393,34.700954],[94.917898,34.686347],[94.94394,34.66352],[94.967459,34.6706],[94.989024,34.608913],[94.997813,34.6046],[95.006765,34.585801],[95.053803,34.574774],[95.067475,34.5338],[95.111501,34.530707],[95.169932,34.486029],[95.211436,34.49962],[95.235362,34.464911],[95.276378,34.472357],[95.313975,34.458686],[95.317556,34.480292],[95.33839,34.485907],[95.348643,34.461778],[95.410167,34.417751],[95.466563,34.362616],[95.492605,34.348822],[95.555919,34.329942],[95.578054,34.311143],[95.5678,34.280544],[95.588878,34.259467],[95.5678,34.238959],[95.596202,34.224677],[95.617605,34.233832],[95.666596,34.21369],[95.680268,34.200792],[95.695323,34.142646],[95.706635,34.129177],[95.788829,34.063422],[95.794363,34.053331],[95.825857,34.051866],[95.848399,34.015082],[95.865001,33.971788],[95.879649,33.950954],[95.894786,33.944851],[95.898204,33.914374],[95.917247,33.90998],[95.951101,33.882432],[95.992931,33.869005],[95.987071,33.843207],[96.03476,33.829169],[96.066905,33.810248],[96.122081,33.797919],[96.095876,33.779649],[96.130626,33.764838],[96.181895,33.767768],[96.188731,33.781765],[96.218272,33.786444],[96.211436,33.773464],[96.22698,33.7685],[96.231944,33.751736],[96.197765,33.746161],[96.205089,33.735541],[96.227306,33.738593],[96.23463,33.717963],[96.256114,33.732489],[96.293956,33.738715],[96.314708,33.731879],[96.35906,33.765977],[96.400076,33.746161],[96.405772,33.739122],[96.397716,33.701768],[96.403819,33.684109],[96.430186,33.690863],[96.455984,33.679551],[96.500011,33.643134],[96.472097,33.628852],[96.472097,33.622626],[96.577566,33.611151],[96.617768,33.588406],[96.623546,33.546902],[96.651866,33.553738],[96.700694,33.547309],[96.708914,33.533271],[96.706716,33.51911],[96.689464,33.50613],[96.708507,33.456326],[96.722748,33.43948],[96.722179,33.434149],[96.705496,33.430854],[96.705496,33.423407],[96.721934,33.413194],[96.732839,33.396674],[96.737315,33.409247],[96.753347,33.409735],[96.746511,33.396674],[96.764903,33.397488],[96.772716,33.38878],[96.773692,33.35574],[96.785085,33.364081],[96.789154,33.386176],[96.800955,33.389838],[96.793549,33.375556],[96.802989,33.367499],[96.828298,33.313544],[96.848888,33.334581],[96.858979,33.32213],[96.880789,33.33279],[96.917735,33.327175],[96.963959,33.348212],[96.97934,33.341417],[96.97934,33.327175],[96.991466,33.337958],[97.007091,33.341417],[96.999766,33.313544],[97.020437,33.320176],[97.0171,33.255805],[97.023936,33.214464],[97.047374,33.183783],[97.083995,33.156684],[97.134288,33.133246],[97.185313,33.046658],[97.229991,33.022732],[97.240815,33.003974],[97.25351,32.9442],[97.287852,32.922471],[97.346934,32.910753],[97.360769,32.896999],[97.376964,32.86164],[97.3838,32.77912],[97.391368,32.761542],[97.424815,32.724473],[97.430431,32.700222],[97.56544,32.624823],[97.603038,32.621446],[97.620372,32.587958],[97.663585,32.559841],[97.817556,32.51321],[97.83782,32.511501],[97.856212,32.51907],[97.886648,32.497585],[98.013927,32.464423],[98.066742,32.422716],[98.080333,32.404608],[98.122813,32.400214],[98.144216,32.381903],[98.205577,32.355577],[98.213145,32.337755],[98.213308,32.273057],[98.2199,32.252143],[98.271495,32.190701],[98.309255,32.128607],[98.374522,32.080349],[98.393321,32.040066],[98.452729,31.983995],[98.456472,31.960395],[98.444835,31.907904],[98.418875,31.879828],[98.435069,31.838324],[98.434581,31.824571],[98.425385,31.8133],[98.445323,31.803534],[98.468272,31.766791],[98.501231,31.749701],[98.541515,31.689765]]}},{"type":"Feature","properties":{"river":"changjiang","rank":1},"geometry":{"type":"MultiLineString","coordinates":[[[98.541515,31.689765],[98.563243,31.669298],[98.568858,31.631781],[98.591889,31.598741],[98.840831,31.396796],[98.864268,31.367703],[98.884776,31.354031],[98.830577,31.298285],[98.802745,31.257839],[98.767589,31.230292],[98.731375,31.277899],[98.682546,31.315863],[98.66505,31.320502],[98.637625,31.30919],[98.620942,31.288845],[98.611095,31.25613],[98.619884,31.187852],[98.603526,31.169623],[98.651378,31.155382],[98.692882,31.12462],[98.726003,31.059638],[98.764659,31.015082],[98.802745,30.990912],[98.805105,30.966254],[98.797862,30.940782],[98.774913,30.902167],[98.787364,30.880805],[98.8331,30.843533],[98.8803,30.793077],[98.954112,30.747829],[98.96046,30.727118],[98.952891,30.708116],[98.91741,30.694892],[98.905284,30.68244],[98.90504,30.663682],[98.921886,30.623643],[98.93157,30.579454],[98.932546,30.490587],[98.956391,30.471055],[98.96046,30.459906],[98.986501,30.144314],[99.033946,30.055243],[99.036632,29.975531],[99.056082,29.915229],[99.017345,29.853298],[99.0053,29.820014],[99.000662,29.784939],[99.014415,29.767849],[99.000662,29.756944],[98.986501,29.650824],[99.023855,29.581488],[99.04184,29.562364],[99.058686,29.417996],[99.048595,29.387641],[99.062755,29.34809],[99.062266,29.308214],[99.089854,29.26671],[99.10849,29.224148],[99.103933,29.092149],[99.120942,28.964626],[99.117442,28.921495],[99.096446,28.835883],[99.124278,28.749579],[99.117442,28.708604],[99.130463,28.664578],[99.154063,28.640652],[99.17213,28.592597],[99.165294,28.554714],[99.178803,28.523627],[99.180186,28.504706],[99.17213,28.463324],[99.161794,28.45539],[99.162364,28.438056],[99.226654,28.339301],[99.254975,28.314399],[99.273448,28.307237],[99.274425,28.277208],[99.29892,28.259874],[99.314545,28.232774],[99.339447,28.224066],[99.381277,28.184434],[99.388601,28.168077],[99.386485,28.139268],[99.398529,28.12641]],[[99.398529,28.119574],[99.391124,28.085313],[99.394542,28.042507],[99.405203,28.000515],[99.449962,27.906317],[99.457774,27.86876],[99.453868,27.832221],[99.431651,27.797716],[99.441335,27.750027],[99.480968,27.674628],[99.494151,27.659695],[99.523041,27.653591],[99.518484,27.6435],[99.525401,27.616726],[99.521495,27.605048],[99.549815,27.588894],[99.560313,27.563259],[99.555675,27.509467],[99.586192,27.486925],[99.594168,27.472846],[99.589854,27.461697],[99.64503,27.385932],[99.635916,27.350206],[99.653087,27.317694],[99.802419,27.195583],[99.947765,27.029486],[99.960053,26.989366],[99.966563,26.898708],[99.97405,26.886298],[99.989024,26.888983],[100.039154,26.927273],[100.063406,26.958279],[100.063406,27.002997],[100.084727,27.069119],[100.059011,27.12873],[100.056733,27.151638],[100.063406,27.173651],[100.11614,27.208523],[100.14796,27.243272],[100.155772,27.26085],[100.179454,27.276679],[100.237804,27.341864],[100.244558,27.361151],[100.214285,27.413886],[100.206716,27.454861],[100.193126,27.485867],[100.193126,27.511013],[100.203217,27.541938],[100.237641,27.576524],[100.271251,27.652655],[100.295014,27.683539],[100.288666,27.742784],[100.302989,27.780382],[100.296153,27.821357],[100.299571,27.832099],[100.334402,27.824042],[100.388194,27.844794],[100.420339,27.838487],[100.433197,27.798041],[100.433197,27.742784],[100.461843,27.688096],[100.464936,27.670681],[100.443777,27.538398],[100.448822,27.498969],[100.481049,27.468533],[100.527599,27.452826],[100.542979,27.438788],[100.524425,27.400499],[100.522716,27.376654],[100.528819,27.331326],[100.552419,27.255479],[100.538829,27.21955],[100.494721,27.187934],[100.45045,27.194159],[100.437592,27.190985],[100.433849,27.183905],[100.436615,27.176825],[100.466075,27.166083],[100.486257,27.147488],[100.497081,27.124132],[100.474294,27.057644],[100.453868,27.0303],[100.458263,26.980658],[100.474294,26.934678],[100.458263,26.905341],[100.451915,26.826443],[100.441173,26.814765],[100.398204,26.803819],[100.393972,26.787177],[100.398529,26.746039],[100.412852,26.724921],[100.405935,26.711534],[100.418956,26.674018],[100.418956,26.639228],[100.433197,26.625596],[100.426524,26.605089],[100.426524,26.519477],[100.430756,26.499132],[100.449474,26.465277],[100.460704,26.403388],[100.440847,26.373074],[100.453868,26.364936],[100.41684,26.321845],[100.412852,26.300076],[100.447032,26.227729],[100.473725,26.214952],[100.547944,26.229438],[100.584239,26.221503],[100.599294,26.205024],[100.612071,26.201036],[100.635671,26.213162],[100.667735,26.191677],[100.734386,26.1942],[100.774913,26.184149],[100.793875,26.184638],[100.83074,26.206],[100.905772,26.166287],[100.987804,26.269721],[101.125662,26.345282],[101.170665,26.355089],[101.201101,26.372382],[101.239675,26.362982],[101.255056,26.372382],[101.369721,26.379503],[101.422944,26.393093],[101.471772,26.445583],[101.476329,26.461046],[101.451915,26.471625],[101.464366,26.492133],[101.44752,26.519477],[101.452729,26.531195],[101.488455,26.57038],[101.518484,26.590644],[101.618907,26.598253],[101.646658,26.57038],[101.652354,26.589952],[101.680919,26.564154],[101.697846,26.564805],[101.715017,26.591417],[101.723074,26.594306],[101.738455,26.593288],[101.754975,26.583319],[101.77589,26.598253],[101.805675,26.601426],[101.830577,26.591417],[101.845876,26.571885],[101.892833,26.462266],[101.947765,26.413357],[101.939138,26.381212],[101.94044,26.317165],[101.904389,26.23782],[101.917247,26.210517],[101.857026,26.169013],[101.844737,26.13935],[101.837901,26.067328],[101.844737,26.032823],[101.830577,25.994981],[101.838796,25.98253],[101.874115,25.972968],[101.957774,25.994981],[102.017833,25.98668],[102.083995,25.999579],[102.098643,26.015448],[102.10198,26.071112],[102.130382,26.114814],[102.145437,26.132107],[102.222179,26.186794],[102.25172,26.228787],[102.338308,26.251166],[102.358165,26.262519],[102.40032,26.311713],[102.464854,26.322618],[102.502615,26.337592],[102.567882,26.378526],[102.602794,26.366238],[102.626231,26.345038],[102.60963,26.260118],[102.680919,26.221503],[102.710867,26.228949],[102.766775,26.293321],[102.791026,26.310329],[102.845225,26.327094],[102.87794,26.365017],[102.893077,26.364936],[102.891775,26.355292],[102.908376,26.349229],[102.951182,26.345038],[102.971609,26.350857],[102.988292,26.365098],[103.00294,26.400255],[102.989268,26.44123],[103.00294,26.461127],[102.995535,26.485378],[102.999766,26.495795],[103.038666,26.506171],[103.057628,26.5362],[103.057709,26.557196],[103.036062,26.582831],[103.030284,26.601671],[103.029226,26.661811],[102.975108,26.831081],[102.901134,26.924628],[102.893077,26.961371],[102.899343,27.002997],[102.879975,27.023464],[102.878184,27.035712],[102.884776,27.06623],[102.913585,27.11225],[102.915457,27.134345],[102.903575,27.221625],[102.889578,27.256619],[102.889252,27.291368],[102.906993,27.333686],[102.929454,27.367133],[102.941905,27.405097],[102.9546,27.420722],[102.977061,27.38878],[102.991222,27.385932],[103.012787,27.385932],[103.04713,27.40644],[103.120616,27.412177],[103.146983,27.434353],[103.150076,27.473171],[103.160167,27.497138],[103.217865,27.566759],[103.295909,27.587755],[103.304698,27.605048],[103.28419,27.640448],[103.313487,27.654853],[103.326752,27.673529],[103.414561,27.742784],[103.451427,27.759874],[103.458507,27.792548],[103.476573,27.799872],[103.482188,27.824774],[103.503022,27.849677],[103.510916,27.93004],[103.518565,27.94538],[103.562755,27.97545],[103.564708,27.983018],[103.550792,27.98786],[103.513927,27.971381],[103.50172,27.99197],[103.489024,28.037665],[103.440929,28.042304],[103.434255,28.068061],[103.456472,28.105251],[103.454845,28.133857],[103.538178,28.184434],[103.571544,28.243109],[103.612641,28.249945],[103.643565,28.270453],[103.666026,28.26321],[103.708751,28.215766],[103.722097,28.21544],[103.749278,28.242743],[103.788992,28.255479],[103.879975,28.325629],[103.870128,28.343777],[103.859467,28.400743],[103.794932,28.531073],[103.836436,28.604844],[103.832286,28.620469],[103.850678,28.668036]]]}},{"type":"Feature","properties":{"river":"changjiang","rank":1},"geometry":{"type":"MultiLineString","coordinates":[[[112.78183,29.743964],[112.816905,29.753974],[112.852957,29.779079],[112.885834,29.791693],[112.912364,29.764431],[112.918468,29.723456],[112.936046,29.693223],[112.945323,29.709255],[113.012706,29.772895],[113.019216,29.77086],[113.017182,29.724555],[113.005951,29.706122],[112.935069,29.659532],[112.913503,29.634467],[112.908214,29.600694],[112.927664,29.495185],[112.935557,29.480496],[112.953136,29.476589],[113.007823,29.518012],[113.032644,29.518988],[113.044526,29.508368],[113.048595,29.454169],[113.054698,29.443223],[113.07545,29.447455],[113.076182,29.483832],[113.084727,29.494656],[113.089936,29.496039],[113.117768,29.463935],[113.127615,29.462755]],[[103.850678,28.668036],[103.866303,28.675116],[103.87794,28.630439],[103.908376,28.63349],[103.952403,28.614854],[103.972748,28.613064],[104.047537,28.63349],[104.078624,28.613064],[104.091807,28.612616],[104.139903,28.633368],[104.232188,28.639594],[104.248057,28.661933],[104.275076,28.638861],[104.311697,28.630439],[104.36321,28.647162],[104.456472,28.6435],[104.563731,28.707546],[104.588634,28.728339],[104.603526,28.754747],[104.599294,28.784369],[104.622,28.79031],[104.66269,28.782253],[104.699718,28.799587],[104.757091,28.798041],[104.783295,28.82038],[104.803803,28.828477],[104.858409,28.817735],[104.902436,28.784369],[104.92213,28.776923],[104.939952,28.784857],[104.980235,28.835883],[104.991628,28.841498],[105.029877,28.81977],[105.026541,28.795518],[105.013113,28.767035],[105.018321,28.756415],[105.062755,28.746446],[105.095714,28.719184],[105.115733,28.71369],[105.15089,28.732245],[105.154714,28.775824],[105.164806,28.787462],[105.236257,28.749579],[105.259939,28.752712],[105.2942,28.772244],[105.339936,28.783515],[105.351573,28.799872],[105.360362,28.839626],[105.384044,28.869696],[105.435557,28.883816],[105.459565,28.911241],[105.470714,28.913153],[105.497569,28.886786],[105.518158,28.888292],[105.542735,28.899197],[105.559174,28.915107],[105.545909,28.95128],[105.560069,28.961127],[105.585378,28.962266],[105.607432,28.955675],[105.622325,28.942165],[105.62794,28.890489],[105.639252,28.887478],[105.709076,28.894232],[105.752859,28.921698],[105.77532,28.928249],[105.784923,28.911241],[105.79184,28.868679],[105.812755,28.839626],[105.84547,28.825385],[105.877208,28.836127],[105.897227,28.863715],[105.894786,28.900458],[105.873627,28.914659],[105.874766,28.925971],[105.881114,28.928331],[105.86907,28.946072],[105.818858,28.957546],[105.823741,28.977078],[105.880626,29.047309],[105.897227,29.058621],[105.928803,29.064887],[105.990896,29.064887],[106.025076,29.106513],[106.089854,29.081244],[106.117931,29.078559],[106.14088,29.090522],[106.117931,29.164496],[106.155365,29.202094],[106.162364,29.229356],[106.170828,29.233466],[106.189545,29.229356],[106.237315,29.246527],[106.250987,29.264268],[106.244151,29.290839],[106.308686,29.276394],[106.370128,29.29206],[106.392996,29.336493],[106.439464,29.370307],[106.463878,29.397406],[106.516205,29.401435],[106.524832,29.408149],[106.499522,29.455024],[106.498057,29.480496],[106.500987,29.488471],[106.536062,29.494452],[106.534434,29.544989],[106.545909,29.558946],[106.581635,29.568427],[106.586843,29.575751],[106.586843,29.610378],[106.596446,29.624538],[106.621023,29.627265],[106.680756,29.572618],[106.69101,29.571479],[106.720795,29.585639],[106.730886,29.606147],[106.775076,29.617377],[106.842214,29.593329],[106.908132,29.686713],[106.929698,29.70421],[106.963634,29.756944],[107.017345,29.787136],[107.033132,29.809434],[107.070893,29.82392],[107.087169,29.819648],[107.095876,29.804999],[107.117768,29.740261],[107.183442,29.688747],[107.221121,29.691718],[107.295421,29.740058],[107.334076,29.7508],[107.399018,29.728217],[107.425955,29.780463],[107.473888,29.824164],[107.479747,29.841905],[107.458751,29.884711],[107.478038,29.899034],[107.501394,29.900499],[107.55714,29.867011],[107.596121,29.855333],[107.635916,29.853054],[107.68629,29.864691],[107.744395,29.903754],[107.84962,30.004706],[107.865896,30.048163],[107.860362,30.07628],[107.868256,30.113227],[107.897065,30.142442],[107.928233,30.155544],[107.943614,30.209418],[107.992931,30.233018],[108.005056,30.250434],[108.02003,30.299913],[108.032319,30.313096],[108.074311,30.331977],[108.085378,30.329047],[108.094493,30.313096],[108.118337,30.317572],[108.117198,30.331366],[108.087576,30.360297],[108.152843,30.408067],[108.196869,30.422146],[108.231619,30.449652],[108.348725,30.638983],[108.409923,30.709744],[108.424083,30.750678],[108.409923,30.795722],[108.416596,30.833808],[108.497569,30.862413],[108.522227,30.911933],[108.594737,30.928819],[108.6421,30.948269],[108.687511,30.945421],[108.722179,30.926296],[108.745616,30.922634],[108.877208,30.95954],[109.012543,30.949408],[109.17685,30.97663],[109.258881,30.963568],[109.296641,30.965847],[109.430105,30.996202],[109.497813,31.034125],[109.573985,31.04267],[109.608328,31.031846],[109.623953,31.008328],[109.670421,30.997097],[109.731456,31.021267],[109.765636,31.047553],[109.784679,31.053656],[109.871755,31.067572],[109.896658,31.068549],[109.923106,31.060492],[109.955007,31.073432],[109.985769,31.06391],[110.02589,31.032904],[110.042735,31.026923],[110.071707,31.02501],[110.149506,31.038682],[110.281749,31.021023],[110.321544,31.031846],[110.342784,31.049994],[110.355724,31.052314],[110.44394,31.02558],[110.532807,31.031846],[110.583751,31.004991],[110.657319,30.997097],[110.720876,30.967719],[110.801524,30.943874],[110.814952,30.936306],[110.850678,30.893622],[110.921886,30.886827],[110.965831,30.874213],[111.018647,30.829047],[111.036062,30.827989],[111.124034,30.852566],[111.150808,30.840115],[111.161225,30.826768],[111.158214,30.788601],[111.216319,30.775214],[111.263276,30.756537],[111.277599,30.741807],[111.267507,30.709744],[111.391205,30.58572],[111.40089,30.545844],[111.432546,30.503526],[111.448822,30.47016],[111.444428,30.423204],[111.527436,30.401231],[111.499522,30.333686],[111.503673,30.31623],[111.533132,30.282538],[111.55071,30.271674],[111.575857,30.271511],[111.592052,30.281277],[111.619151,30.319851],[111.629324,30.356024],[111.678315,30.395046],[111.751964,30.422187],[111.797293,30.428534],[111.842784,30.428534],[111.881358,30.41828],[111.908295,30.39765],[111.980968,30.304551],[111.997813,30.291815],[112.021007,30.285183],[112.063894,30.287299],[112.103526,30.298855],[112.103526,30.291368],[112.146658,30.304877],[112.195323,30.307481],[112.239024,30.295478],[112.268077,30.264716],[112.270518,30.223578],[112.213634,30.1706],[112.192882,30.134345],[112.196544,30.092353],[112.223155,30.076728],[112.309011,30.072862],[112.352468,30.05919],[112.391205,30.031684],[112.417898,29.99372],[112.425141,29.948798],[112.400645,29.884141],[112.384369,29.863064],[112.36671,29.747504],[112.368663,29.726589],[112.387543,29.733425],[112.423839,29.761542],[112.466075,29.778673],[112.53297,29.774359],[112.54184,29.781806],[112.548839,29.823065],[112.559255,29.839626],[112.575857,29.8463],[112.600352,29.839219],[112.602631,29.821357],[112.590017,29.77497],[112.59962,29.721991],[112.610606,29.709784],[112.636241,29.71369],[112.6421,29.743679],[112.63795,29.805365],[112.654307,29.822333],[112.682872,29.82685],[112.714773,29.822292],[112.740326,29.812201],[112.764171,29.789984],[112.748464,29.779812],[112.692556,29.764431],[112.693126,29.747382],[112.721772,29.738593],[112.760183,29.737616],[112.788829,29.743964]]]}},{"type":"Feature","properties":{"river":"changjiang","rank":1},"geometry":{"type":"MultiLineString","coordinates":[[[119.606375,32.196885],[119.572358,32.191759],[119.557384,32.200141],[119.530365,32.231716],[119.504812,32.239529],[119.452566,32.233466],[119.365326,32.234402],[119.303722,32.206163],[119.252208,32.200019],[119.129242,32.228542],[119.078705,32.232733],[119.027843,32.2213],[118.96339,32.187771],[118.909679,32.173896],[118.883474,32.173204],[118.793224,32.192816],[118.774343,32.187079],[118.689464,32.062445],[118.614838,31.990017],[118.586355,31.949571],[118.553315,31.916287],[118.53476,31.884467],[118.498627,31.851264],[118.426199,31.724473],[118.41505,31.699774],[118.403819,31.623236],[118.379649,31.556179],[118.31601,31.4713],[118.302175,31.438341],[118.304861,31.416449],[118.318614,31.394965],[118.324474,31.371039],[118.324474,31.338324],[118.315115,31.308051],[118.296641,31.29739],[118.220144,31.291124],[118.155935,31.259141],[118.112722,31.252509],[118.060557,31.233222],[118.040457,31.233344],[118.027843,31.243679],[118.014171,31.237616],[117.995942,31.208604],[117.988699,31.122829],[117.980398,31.109971],[117.952729,31.093573],[117.907156,31.087673],[117.894542,31.096788],[117.870372,31.133328],[117.856863,31.140937],[117.822765,31.141181],[117.793386,31.124457],[117.766531,31.092108],[117.768077,31.006659],[117.732026,30.874457],[117.697276,30.803738],[117.687429,30.796658],[117.608653,30.780137],[117.53712,30.740831],[117.466075,30.726264],[117.42921,30.70246],[117.345876,30.698757],[117.260753,30.669623],[117.226003,30.673367],[117.217784,30.648953],[117.22755,30.617377],[117.22405,30.586208],[117.232839,30.555121],[117.225678,30.532497],[117.209565,30.514024],[117.183116,30.499376],[117.150645,30.494249],[117.033295,30.490587],[117.007498,30.48371],[116.936127,30.435858],[116.89267,30.423285],[116.888276,30.402615],[116.921397,30.33747],[116.90683,30.270697],[116.822276,30.115424],[116.808523,30.102078],[116.716075,30.05976],[116.650076,30.050605],[116.636485,30.043321],[116.575206,29.99079],[116.548839,29.954128],[116.526947,29.906684],[116.51295,29.89411],[116.466563,29.880316],[116.389171,29.876003],[116.356537,29.858262],[116.265229,29.788886],[116.235932,29.781277],[116.110281,29.786444],[115.99879,29.744005],[115.888682,29.731757],[115.855724,29.738471],[115.743337,29.808783],[115.718191,29.854071],[115.704845,29.860704],[115.621104,29.862372],[115.534923,29.85456],[115.46339,29.871283],[115.426687,29.895331],[115.386729,29.969672],[115.330496,30.018175],[115.275401,30.120958],[115.189952,30.208767],[115.164561,30.221055],[115.106944,30.21955],[115.072032,30.236029],[115.061453,30.270453],[115.072765,30.341132],[115.052989,30.369005],[114.987397,30.407416],[114.94394,30.416042],[114.860769,30.418891],[114.829275,30.441107],[114.810802,30.493191],[114.808523,30.526313],[114.814057,30.539903],[114.851573,30.576931],[114.855398,30.591132],[114.844737,30.605658],[114.806082,30.616278],[114.731456,30.609442],[114.67685,30.58629],[114.600841,30.574286],[114.56601,30.593329],[114.502371,30.673163],[114.45753,30.690741],[114.429128,30.690294],[114.375987,30.672675],[114.354015,30.656521],[114.296397,30.586859]],[[116.19752,29.75141],[116.20753,29.779486]],[[113.127615,29.462755],[113.145437,29.471991],[113.186046,29.531684],[113.415538,29.764472],[113.445974,29.780056],[113.519216,29.84162],[113.607026,29.890204],[113.65032,29.929389],[113.664236,29.954617],[113.687755,29.963446],[113.706716,29.9289],[113.748627,29.919989],[113.79241,29.933417],[113.831065,29.958279],[113.889659,30.013007],[113.92335,30.033555],[114.062266,30.088935],[114.069835,30.103339],[114.064382,30.124376],[114.015147,30.154853],[113.983409,30.185167],[113.964285,30.197943],[113.940115,30.203233],[113.874441,30.184841],[113.858165,30.195828],[113.857595,30.231065],[113.885509,30.265204],[113.927175,30.28852],[113.968028,30.291368],[113.983409,30.282579],[114.018565,30.240505],[114.039073,30.2296],[114.053966,30.24018],[114.106619,30.352322],[114.24171,30.497423],[114.287364,30.575995],[114.303233,30.593044]]]}},{"type":"Feature","properties":{"river":"liaoshui","rank":3},"geometry":{"type":"LineString","coordinates":[[123.553966,43.483466],[123.603119,43.439643],[123.6338,43.370185],[123.628998,43.346381],[123.581635,43.31212],[123.574474,43.294786],[123.547944,43.184882],[123.54713,43.174994],[123.553966,43.18183],[123.560802,43.174994],[123.551199,43.157986],[123.539643,43.085639],[123.515147,43.047553],[123.527192,43.025214],[123.524425,43.001166],[123.526541,42.990058],[123.526541,42.996283],[123.558523,42.953681],[123.588145,42.942247],[123.589936,42.935126],[123.583751,42.923204],[123.592784,42.835801],[123.601736,42.818712],[123.590424,42.802273],[123.584727,42.777167],[123.570974,42.760362],[123.566173,42.746039],[123.573822,42.714708],[123.560802,42.702012],[123.579031,42.674262],[123.609304,42.67475],[123.649506,42.620144],[123.694021,42.597235],[123.695323,42.590766],[123.683686,42.579169],[123.762218,42.534491],[123.773692,42.520819],[123.766775,42.496609],[123.793549,42.482937],[123.800955,42.469672],[123.802989,42.440863],[123.793549,42.42829],[123.807628,42.411811],[123.863048,42.417792],[123.897227,42.400417],[123.894623,42.379462],[123.862071,42.344916],[123.798757,42.304999],[123.757091,42.305976],[123.738862,42.291124],[123.727306,42.301459],[123.706716,42.306505],[123.663829,42.304796],[123.647634,42.298163],[123.635183,42.28738],[123.622813,42.256415],[123.603608,42.263536],[123.588145,42.256415],[123.557384,42.209906],[123.485769,42.18126],[123.422455,42.16706],[123.3838,42.141059],[123.366466,42.141669],[123.351736,42.161241],[123.33546,42.153998],[123.249278,42.174506],[123.195567,42.158637],[123.177257,42.13349],[123.160574,42.124538],[123.089692,42.117621],[123.051687,42.101752],[123.033214,42.072089],[122.991222,42.068427],[122.960378,42.054999],[122.95989,42.049425],[122.97169,42.044135],[122.95045,42.009223],[122.924571,41.982693],[122.930756,41.969021],[122.889903,41.962226],[122.924571,41.941677],[122.914236,41.923692],[122.872976,41.885077],[122.854991,41.879665],[122.862641,41.872829],[122.8296,41.840033],[122.814708,41.831855],[122.78419,41.830349],[122.773367,41.807969],[122.7588,41.797065],[122.786794,41.79088],[122.766205,41.766954],[122.774425,41.740587],[122.743744,41.734198],[122.738455,41.72724],[122.739024,41.694648],[122.690684,41.663926],[122.694835,41.618679],[122.690684,41.605292],[122.704194,41.585395],[122.643647,41.53144],[122.622325,41.458197],[122.624115,41.44538],[122.642833,41.420966],[122.630463,41.415147],[122.656342,41.37934],[122.642833,41.358913],[122.635916,41.324774],[122.641775,41.305732],[122.620697,41.28502],[122.567149,41.256456],[122.540294,41.24962],[122.477143,41.199571],[122.397634,41.176703],[122.39088,41.166287],[122.388927,41.136664],[122.401541,41.098212],[122.414806,41.086005],[122.402599,41.042914],[122.409679,41.026394],[122.409434,41.002631],[122.341807,40.995795],[122.343028,40.96251],[122.334972,40.926866],[122.323253,40.94245],[122.313731,40.906358],[122.278331,40.865912],[122.266124,40.858588],[122.24407,40.86579],[122.223643,40.852484],[122.203868,40.851752],[122.186941,40.869452],[122.180431,40.868842],[122.170095,40.854926],[122.177257,40.844916],[122.125499,40.825141],[122.110362,40.808539],[122.115245,40.783515],[122.163992,40.750556],[122.190929,40.715277],[122.258474,40.693468],[122.23878,40.680487],[122.20989,40.682685],[122.165457,40.710028],[122.156261,40.701606]]}},{"type":"Feature","properties":{"river":"yuanshui","rank":3},"geometry":{"type":"MultiLineString","coordinates":[[[112.993582,29.147488],[113.000011,29.216091],[113.034597,29.288113],[113.047944,29.363227],[113.070811,29.389187]],[[112.904796,29.031358],[112.862804,28.952704],[112.843272,28.931464],[112.766612,28.892524],[112.699718,28.870917],[112.642589,28.861762],[112.611095,28.859442],[112.574718,28.874213],[112.539073,28.865668],[112.507823,28.831488],[112.470714,28.81977],[112.435557,28.820665],[112.361501,28.89171],[112.3331,28.900743],[112.324311,28.89293],[112.327566,28.870469],[112.307628,28.843207],[112.272065,28.849555],[112.228445,28.891547],[112.186534,28.914089],[112.150645,28.91295],[112.007823,28.950222],[111.997813,28.961249],[111.992931,28.984687]]]}},{"type":"Feature","properties":{"river":"yuanshui","rank":3},"geometry":{"type":"MultiLineString","coordinates":[[[113.069347,29.387641],[113.127615,29.462755]],[[112.904796,29.031358],[112.921641,29.038926],[112.942963,29.065253],[112.938975,29.095974],[112.944591,29.114814],[112.993582,29.147488]],[[107.504812,26.337592],[107.493337,26.305691],[107.493663,26.283067],[107.505951,26.245063],[107.496349,26.214219],[107.499522,26.205512],[107.59547,26.140489],[107.618337,26.142524],[107.656261,26.160102],[107.712576,26.225898],[107.719493,26.268622],[107.785574,26.361925],[107.803722,26.404568],[107.80714,26.44123],[107.779226,26.491482],[107.789806,26.512315],[107.821381,26.5362],[107.861827,26.543647],[107.875418,26.564154],[107.896495,26.564154],[107.936127,26.581244],[107.941905,26.596788],[107.977794,26.639228],[107.991466,26.680243],[108.028331,26.723456],[108.087576,26.755927],[108.132498,26.792304],[108.152843,26.796942],[108.180756,26.831122],[108.237722,26.853339],[108.276866,26.860378],[108.312429,26.857001],[108.335378,26.827175],[108.351736,26.824408],[108.368175,26.826728],[108.382742,26.838813],[108.396007,26.832465],[108.404307,26.817694],[108.396088,26.796942],[108.396088,26.769599],[108.416596,26.776435],[108.409923,26.769599],[108.430268,26.749091],[108.485444,26.739773],[108.496755,26.732774],[108.505382,26.714952],[108.496104,26.704657],[108.497325,26.696479],[108.519054,26.68769],[108.519135,26.67239],[108.581065,26.646064],[108.581065,26.659735],[108.595876,26.645575],[108.609874,26.60102],[108.625499,26.591417],[108.641124,26.599311],[108.654796,26.617621],[108.663097,26.65351],[108.69337,26.67121],[108.702729,26.696479],[108.76295,26.694525],[108.751882,26.656602],[108.758718,26.63349],[108.8213,26.611355],[108.868582,26.557563],[108.889659,26.564154],[108.905284,26.555976],[108.917572,26.560411],[108.924571,26.573554],[108.924327,26.591417],[108.939708,26.585883],[108.971609,26.611355],[109.03297,26.633083],[109.039073,26.618232],[109.066987,26.591417],[109.101329,26.625596],[109.129242,26.625596],[109.190522,26.666571],[109.214854,26.718085],[109.247976,26.743272],[109.259776,26.759955],[109.307384,26.769599],[109.331635,26.786811],[109.354421,26.81863],[109.389903,26.837917],[109.369151,26.851874],[109.381358,26.872748],[109.453868,26.912136],[109.455333,26.939236],[109.444428,26.981879],[109.4581,27.033718],[109.450694,27.046169],[109.410248,27.067206],[109.414073,27.080512],[109.468272,27.07807],[109.478608,27.084296],[109.486095,27.11225],[109.509858,27.081366],[109.520112,27.07807],[109.530854,27.08747],[109.535737,27.118516],[109.591319,27.139512],[109.625662,27.132676],[109.64796,27.182888],[109.663585,27.194159],[109.66684,27.140245],[109.67864,27.126899],[109.7046,27.125271],[109.732026,27.132636],[109.752371,27.146999],[109.747,27.187445],[109.763113,27.209662],[109.844249,27.179511],[109.896414,27.146999],[109.944753,27.132676],[109.951589,27.139512],[109.985281,27.124335],[110.00294,27.12641],[110.013682,27.139512],[109.995535,27.145575],[110.054617,27.207831],[110.064708,27.247504],[110.079275,27.257636],[110.087494,27.283759],[110.100515,27.293891],[110.135916,27.297797],[110.124522,27.344672],[110.177419,27.365505],[110.19337,27.382188],[110.232839,27.454861],[110.277924,27.520575],[110.292247,27.568915],[110.269949,27.608018],[110.273041,27.632921],[110.293956,27.625841],[110.329275,27.643337],[110.324636,27.676866],[110.358328,27.685167],[110.37672,27.714911],[110.363048,27.742784],[110.336843,27.772406],[110.350678,27.783149],[110.378835,27.836208],[110.382904,27.845893],[110.37851,27.866156],[110.342052,27.866319],[110.324718,27.911811],[110.314057,27.902167],[110.244395,27.908311],[110.238455,27.913357],[110.250255,27.943468],[110.268158,27.958604],[110.280528,27.955146],[110.287364,27.968777],[110.261485,27.972113],[110.146495,28.016547],[110.139171,28.021796],[110.135916,28.058173],[110.102468,28.096015],[110.107432,28.105292],[110.143321,28.099148],[110.149343,28.11225],[110.137218,28.133857],[110.139659,28.143826],[110.16505,28.154486],[110.156993,28.167344],[110.176524,28.177924],[110.204845,28.225775],[110.199474,28.234483],[110.175955,28.239285],[110.170665,28.246527],[110.16448,28.29088],[110.199229,28.279893],[110.232839,28.284044],[110.287364,28.339301],[110.321544,28.393337],[110.375662,28.415147],[110.38974,28.428738],[110.363048,28.437527],[110.371104,28.452012],[110.403412,28.472113],[110.403412,28.513739],[110.445079,28.523627],[110.454031,28.539822],[110.451915,28.577704],[110.462169,28.585069],[110.500011,28.589545],[110.515147,28.600043],[110.520763,28.620469],[110.499604,28.647162],[110.506358,28.659369],[110.544444,28.653998],[110.667247,28.669298],[110.688731,28.676337],[110.698253,28.69184],[110.760265,28.722927],[110.771902,28.742255],[110.791026,28.754584],[110.840261,28.774726],[110.972179,28.810126],[111.003429,28.804389],[111.013276,28.78205],[111.081391,28.82099],[111.091889,28.848904],[111.120372,28.866278],[111.12794,28.862616],[111.143972,28.832139],[111.205089,28.813992],[111.221934,28.758409],[111.295665,28.746161],[111.339122,28.752997],[111.360037,28.7685],[111.368175,28.786566],[111.404552,28.790595],[111.425141,28.832139],[111.462576,28.842719],[111.473643,28.874335],[111.467296,28.893826],[111.493337,28.921495],[111.531668,29.034125],[111.561615,29.051296],[111.585948,29.046169],[111.593272,29.031033],[111.591075,28.977403],[111.603038,28.969835],[111.626557,28.971137],[111.631358,28.976426],[111.652273,29.028388],[111.665294,29.039415],[111.685802,29.037624],[111.696788,29.026679],[111.698985,28.995876],[111.705658,28.982978],[111.718354,28.976833],[111.795421,28.970486],[111.811046,28.977566],[111.814952,28.990668],[111.80128,29.00963],[111.82252,29.020535],[111.84962,29.017117],[111.90089,28.982978],[111.958425,29.001329],[111.986746,29.003689],[111.992931,28.98489]]]}},{"type":"Feature","properties":{"river":"hanshui","rank":2},"geometry":{"type":"LineString","coordinates":[[111.477631,32.567816],[111.465017,32.577948],[111.447846,32.581122],[111.41448,32.573676],[111.364757,32.574897],[111.269135,32.620795],[111.229421,32.649359],[111.138764,32.689073],[111.045828,32.703966],[111.000011,32.740668]]}},{"type":"Feature","properties":{"river":"hanshui","rank":2},"geometry":{"type":"MultiLineString","coordinates":[[[106.398448,33.067694],[106.421153,33.072292],[106.456554,33.10871],[106.473399,33.115261],[106.665619,33.143988],[106.67628,33.142198],[106.69044,33.124823],[106.70045,33.122341],[106.805756,33.124376],[106.864268,33.136013],[106.883556,33.131415],[107.015636,33.038398],[107.058849,33.033881],[107.073416,33.012478],[107.11435,33.046658],[107.156261,33.047471],[107.169688,33.076239],[107.188243,33.088935],[107.261729,33.103298],[107.323253,33.101264],[107.357595,33.136013],[107.389903,33.128526],[107.420828,33.136827],[107.534923,33.215359],[107.54713,33.190619],[107.623546,33.187038],[107.644949,33.170722],[107.735362,33.177436],[107.751394,33.174018],[107.779226,33.155829],[107.787364,33.168769],[107.832937,33.191596],[107.863699,33.242947],[107.888682,33.243598],[107.905203,33.227891],[107.938975,33.219306],[107.955658,33.206407],[107.959565,33.188056],[107.942149,33.158962],[107.937266,33.134385],[107.955089,33.123114],[107.956716,33.080756],[107.977957,33.086615],[108.026134,33.046658],[108.047781,33.037055],[108.064708,33.035346],[108.101329,33.046658],[108.141368,33.037665],[108.219656,33.032335],[108.258881,33.019314],[108.274994,33.005683],[108.279063,32.989325],[108.274832,32.970771],[108.245372,32.916287],[108.258881,32.882148],[108.237722,32.839423],[108.252208,32.827501],[108.273692,32.840522],[108.286225,32.834337],[108.29184,32.824897],[108.286225,32.799628],[108.312511,32.769843],[108.35255,32.749783],[108.437755,32.724473],[108.437755,32.717637],[108.396088,32.703966],[108.416596,32.662421],[108.431895,32.669745],[108.439464,32.666449],[108.450206,32.648749],[108.47169,32.633409],[108.454112,32.618354],[108.448171,32.599433],[108.498057,32.566921],[108.52296,32.528835],[108.601573,32.505398],[108.622081,32.48489],[108.681733,32.504991],[108.692882,32.504177],[108.697195,32.491767],[108.758067,32.537421],[108.774018,32.566352],[108.759858,32.607774],[108.777843,32.61461],[108.779796,32.635118],[108.792898,32.62462],[108.800222,32.607774],[108.812511,32.620795],[108.81894,32.618191],[108.827566,32.601589],[108.851573,32.586534],[108.855968,32.609565],[108.890391,32.61168],[108.903331,32.642524],[108.996104,32.656195],[109.03297,32.711453],[109.086436,32.724473],[109.1338,32.783962],[109.148529,32.787869],[109.255056,32.752387],[109.298432,32.74787],[109.334565,32.758612],[109.352061,32.789984],[109.383067,32.813259],[109.389089,32.838487],[109.411794,32.844591],[109.403412,32.868476],[109.438975,32.860419],[109.448822,32.868679],[109.514252,32.883816],[109.52589,32.892198],[109.533946,32.909451],[109.565684,32.88349],[109.581635,32.888943],[109.602061,32.916287],[109.612397,32.916368],[109.632823,32.903266],[109.650483,32.904731],[109.682384,32.916368],[109.718191,32.94835],[109.729503,32.949327],[109.739268,32.936794]],[[109.739268,32.929958],[109.782807,32.90115],[109.8095,32.893134],[109.83546,32.895819],[109.868175,32.912909],[109.898855,32.914374],[109.937918,32.895819],[109.992605,32.888943],[110.040294,32.86164],[110.095632,32.841173],[110.123546,32.813259],[110.215424,32.813259],[110.274099,32.789862],[110.318126,32.808458],[110.325694,32.827745],[110.33546,32.834337],[110.397634,32.858018],[110.411794,32.856065],[110.403412,32.834337],[110.418468,32.829942],[110.462169,32.841173],[110.477143,32.836941],[110.507091,32.813259],[110.566824,32.829128],[110.591726,32.829657],[110.588959,32.807074],[110.616954,32.820665],[110.636729,32.793402],[110.705089,32.799628],[110.705089,32.807074],[110.692882,32.810248],[110.685313,32.820665],[110.718761,32.837999],[110.746104,32.86164],[110.811534,32.827501],[110.824229,32.814643],[110.845714,32.817247],[110.866466,32.834337],[110.902273,32.810858],[110.931082,32.813259],[110.962413,32.799628],[110.993175,32.807074],[110.9581,32.781195],[110.962413,32.769151],[111.000011,32.740668]],[[111.477631,32.567816],[111.492198,32.530137],[111.547944,32.48489],[111.615245,32.454454],[111.643891,32.434149],[111.665294,32.402371],[111.633067,32.349311],[111.637299,32.327257],[111.672862,32.303412],[111.699474,32.265163],[111.693614,32.224189],[111.72698,32.19123],[111.771983,32.162869],[111.80128,32.135443],[111.814708,32.092882],[111.827159,32.078721],[111.876231,32.075995],[111.931651,32.093858],[111.953054,32.094916],[111.993256,32.082831],[112.008067,32.054511],[112.026541,32.046413],[112.157807,32.034206],[112.192882,32.021999],[112.192882,31.991482],[112.170095,31.975857],[112.16448,31.951524],[112.173839,31.928534],[112.217459,31.895087],[112.220225,31.883612],[112.182546,31.822374],[112.177257,31.797309],[112.215912,31.779853],[112.268077,31.737616],[112.336681,31.724392],[112.353608,31.713975],[112.369884,31.69245],[112.406749,31.606716],[112.442393,31.569688],[112.452403,31.550238],[112.438569,31.484402],[112.452403,31.443386],[112.425385,31.386013],[112.402273,31.358262],[112.404552,31.333523],[112.414806,31.318915],[112.462901,31.288845],[112.500499,31.24197],[112.567556,31.215399],[112.569753,31.192939],[112.548432,31.151679],[112.582774,31.10696],[112.584239,31.086127],[112.517507,31.100775],[112.506765,31.089179],[112.508067,31.063015],[112.533702,30.990749],[112.567149,30.94123],[112.577729,30.877021],[112.678966,30.833279],[112.630463,30.82331],[112.649669,30.78323],[112.625987,30.747626],[112.596283,30.676215],[112.624441,30.657904],[112.703298,30.661566],[112.719819,30.651964],[112.714122,30.640489],[112.687511,30.63113],[112.678966,30.620958],[112.692556,30.552069],[112.748139,30.583116],[112.771414,30.586859],[112.783621,30.576728],[112.81601,30.51793],[112.852631,30.499294],[112.874766,30.496039],[112.884288,30.508002],[112.881602,30.555732],[112.89088,30.570746],[112.918468,30.573188],[112.933442,30.563829],[112.951427,30.531277],[112.9699,30.524115],[113.06308,30.51793],[113.062511,30.47838],[113.107432,30.483181],[113.113373,30.45307],[113.124034,30.442206],[113.137299,30.439561],[113.165538,30.449652],[113.196218,30.428534],[113.289073,30.428534],[113.427338,30.395209],[113.466563,30.395046],[113.500662,30.408067],[113.545665,30.473253],[113.607432,30.511908],[113.622976,30.531684],[113.646983,30.586249],[113.74822,30.627794],[113.789236,30.60045],[113.817475,30.622097],[113.830333,30.620958],[113.83839,30.610907],[113.834483,30.599962],[113.816742,30.586859],[113.830333,30.575141],[113.852143,30.603217],[113.840587,30.648261],[113.854503,30.655707],[113.878184,30.634304],[113.920421,30.632839],[113.930919,30.672675],[113.941498,30.6789],[113.968028,30.661933],[113.995697,30.624579],[114.027436,30.616645],[114.031993,30.593044],[114.069835,30.60045],[114.170665,30.598212],[114.289561,30.566352]]]}},{"type":"Feature","properties":{"river":"ganshui","rank":3},"geometry":{"type":"LineString","coordinates":[[115.981944,29.279161],[115.981375,29.290229],[116.000011,29.302598],[116.041515,29.312445],[116.05185,29.332546],[116.051199,29.365424],[116.040945,29.403103],[116.045828,29.423651],[116.114675,29.492458],[116.127371,29.51793],[116.134532,29.58043],[116.161794,29.651435],[116.156993,29.680691],[116.160655,29.703192],[116.192393,29.735867],[116.19752,29.75141]]}},{"type":"Feature","properties":{"river":"ganshui","rank":3},"geometry":{"type":"LineString","coordinates":[[114.412527,24.707058],[114.43214,24.710639],[114.484874,24.700222],[114.501964,24.708767],[114.521983,24.746365],[114.575287,24.766872],[114.625662,24.830878],[114.665538,24.845242],[114.70696,24.875067],[114.727794,24.871527],[114.748953,24.912543],[114.768891,24.904079],[114.765391,24.963975],[114.776296,24.980496],[114.784597,25.018134],[114.779307,25.055528],[114.744314,25.087104],[114.741466,25.100531],[114.817149,25.138454],[114.886811,25.157091],[114.894949,25.145575],[114.905854,25.148708],[114.899018,25.162624],[114.899018,25.193671],[114.87794,25.211982],[114.869151,25.2296],[114.865001,25.265692],[114.896007,25.29267],[114.898529,25.30447],[114.878673,25.337673],[114.919688,25.358181],[114.924734,25.388373],[114.955658,25.401557],[114.964366,25.422634],[114.96339,25.445828],[114.953705,25.461208],[115.003917,25.505439],[114.995209,25.529486],[115.007335,25.551866],[115.002615,25.621934],[115.009288,25.642686],[115.057384,25.68712],[115.073253,25.686632],[115.083914,25.706488],[115.091563,25.752265],[115.086681,25.775336],[115.103119,25.798407],[115.098399,25.830512],[115.110932,25.850857],[115.106619,25.865831],[115.079845,25.892198],[115.023448,25.893907],[115.007091,25.85871],[114.983653,25.850857],[114.953543,25.857367],[114.930186,25.88406],[114.927013,25.896023],[114.942393,25.928331],[114.940684,25.940375],[114.908132,25.947292],[114.899018,25.954047],[114.897472,25.966254],[114.917898,26.020616],[114.953705,26.057074],[114.95753,26.091335],[114.949636,26.099962],[114.898529,26.120795],[114.892833,26.132148],[114.924571,26.207343],[114.953705,26.214708],[114.919688,26.27615],[114.923839,26.305609],[114.901378,26.340644],[114.786143,26.447455],[114.771251,26.45246],[114.684255,26.520331],[114.671967,26.540635],[114.67628,26.560411],[114.80364,26.675564],[114.816417,26.736599],[114.837576,26.776435],[114.940847,26.794216],[115.002615,26.824815],[115.009939,26.862494],[114.972179,26.920681],[114.981619,26.955146],[115.029877,26.987901],[115.036794,27.006415],[115.03004,27.028428],[114.981619,27.063788],[114.974701,27.108507],[114.998139,27.142198],[115.089936,27.200507],[115.109874,27.228298],[115.115245,27.302029],[115.063487,27.451483],[115.095714,27.456814],[115.111908,27.468533],[115.135509,27.534857],[115.166515,27.550849],[115.180675,27.566474],[115.220632,27.632921],[115.249278,27.643581],[115.330496,27.695095],[115.330496,27.714911],[115.344737,27.722357],[115.372081,27.759874],[115.383881,27.804389],[115.425304,27.874945],[115.440115,27.977403],[115.483165,28.056016],[115.492198,28.065009],[115.51588,28.069159],[115.532725,28.080186],[115.583018,28.13699],[115.622081,28.159206],[115.707937,28.187852],[115.757742,28.189887],[115.772634,28.198432],[115.798757,28.238878],[115.833018,28.247504],[115.865489,28.284044],[115.868175,28.300482],[115.851736,28.339301],[115.841726,28.392524],[115.824474,28.40587],[115.819591,28.418728],[115.8178,28.451687],[115.828054,28.493923],[115.823985,28.510606],[115.796641,28.565253],[115.815929,28.629462],[115.834483,28.639716],[115.885916,28.71544],[115.911143,28.769151],[115.938569,28.787543],[115.981537,28.853298],[115.989024,28.886786],[116.007091,28.911648],[116.027354,28.974189],[116.023204,29.037624],[116.004893,29.066352],[115.996755,29.106391],[115.995942,29.188422],[116.002208,29.208523],[115.981944,29.279161]]}},{"type":"Feature","properties":{"river":"liaoshui","rank":3},"geometry":{"type":"LineString","coordinates":[[117.208751,42.592149],[117.178233,42.597927],[117.160167,42.620144],[117.166596,42.63288],[117.193126,42.653591],[117.187266,42.679551],[117.229747,42.708848],[117.234874,42.721381],[117.23406,42.781928],[117.188243,42.873358],[117.180431,42.905097],[117.229747,42.962104],[117.216807,42.9831],[117.220144,43.005642],[117.235606,43.023627],[117.290294,43.042548],[117.359467,43.044623],[117.381847,43.051296],[117.420909,43.074408],[117.457286,43.08336],[117.500662,43.103949],[117.571707,43.149482],[117.61378,43.157253],[117.681651,43.18183],[117.843191,43.202989],[117.937592,43.195014],[117.958263,43.220893],[118.00587,43.245551],[118.147065,43.259874],[118.202403,43.284247],[118.250092,43.295722],[118.298106,43.295111],[118.447032,43.273505],[118.548595,43.274237],[118.59962,43.263739],[118.6338,43.243272],[118.684988,43.250759],[119.131602,43.217312],[119.181733,43.223456],[119.246023,43.252875],[119.267833,43.256944],[119.620616,43.265937],[120.164236,43.380154],[120.341401,43.372504],[120.758474,43.423448]]}},{"type":"Feature","properties":{"river":"liaoshui","rank":3},"geometry":{"type":"LineString","coordinates":[[120.758474,43.423448],[120.819753,43.468288],[120.97462,43.516628],[121.019054,43.524482],[121.118175,43.524482],[121.159272,43.538153],[121.360362,43.534003],[121.43214,43.51557],[121.47169,43.493964],[121.495128,43.489691],[121.522472,43.470486],[121.574636,43.470486],[121.772634,43.442491],[121.873464,43.444932],[121.919363,43.45307],[121.963796,43.470486],[122.014578,43.500067],[122.053315,43.509589],[122.107839,43.544949],[122.17628,43.568671],[122.25172,43.641181],[122.361501,43.7237],[122.378429,43.720282],[122.468272,43.741482],[122.540294,43.77086],[122.632498,43.784491],[122.652192,43.790391],[122.687592,43.815253],[122.711029,43.819281],[122.7588,43.805609],[122.79713,43.819281],[122.944428,43.803982],[123.00351,43.774929],[123.007091,43.75198],[123.024913,43.731269],[123.142507,43.703192],[123.231944,43.668484],[123.226085,43.653835],[123.23463,43.648505],[123.259776,43.641181],[123.266612,43.648017],[123.280284,43.642117],[123.314382,43.648017],[123.372813,43.641181],[123.3956,43.623847],[123.451671,43.599555],[123.500011,43.586534],[123.509532,43.57746],[123.506114,43.554877],[123.510916,43.536811],[123.553966,43.483466]]}},{"type":"Feature","properties":{"river":"minjiang","rank":3},"geometry":{"type":"LineString","coordinates":[[103.716238,29.558946],[103.741222,29.561347],[103.755056,29.556342],[103.788992,29.46247],[103.793956,29.421332],[103.812266,29.371772],[103.822276,29.356309],[103.870209,29.328437],[103.866303,29.305121],[103.847992,29.289578],[103.852631,29.277777],[103.902924,29.263251],[103.952403,29.226264],[103.962901,29.209093],[103.970144,29.168728],[104.004812,29.12169],[104.021007,29.115994],[104.043956,29.12698],[104.084483,29.083686],[104.130789,29.073757],[104.174815,29.037624],[104.235362,29.023464],[104.246755,29.0008],[104.285737,28.974311],[104.273204,28.92182],[104.274343,28.902289],[104.307546,28.86994],[104.424897,28.816596],[104.454112,28.79682],[104.472667,28.791449],[104.511241,28.798041],[104.547537,28.827338],[104.561534,28.821885],[104.599294,28.784369]]}},{"type":"Feature","properties":{"river":"huaishui","rank":2},"geometry":{"type":"MultiLineString","coordinates":[[[118.741791,33.094835],[118.730235,33.09573],[118.721283,33.114569],[118.711518,33.201972],[118.687022,33.222927],[118.590343,33.242784],[118.559255,33.225165],[118.536794,33.199083],[118.49879,33.073757],[118.467784,33.023017],[118.428396,32.992011],[118.388601,32.976386],[118.351003,32.968085],[118.314138,32.970974],[118.289073,32.978339],[118.253429,33.004828],[118.217052,33.105048],[118.217784,33.179796],[118.196544,33.204861],[118.177338,33.21247],[118.160167,33.207099],[118.151134,33.177558],[118.034109,33.161078],[117.947276,33.169013],[117.914236,33.162462],[117.898041,33.146593],[117.896007,33.061957],[117.888927,33.049831],[117.869314,33.040839],[117.825694,33.036078],[117.783946,33.054063],[117.762625,33.05329]],[[119.28419,32.718288],[119.277761,32.779364],[119.284597,32.801215],[119.325694,32.870063],[119.327078,32.899115],[119.313487,32.939765],[119.290457,32.975165],[119.288829,32.993842],[119.325613,33.018663],[119.337494,33.051581],[119.308686,33.11876],[119.293793,33.136786],[119.25587,33.161811],[119.250987,33.183661],[119.230724,33.189805],[119.167898,33.162462],[119.155365,33.146796],[119.141124,33.075141],[119.13323,33.063259],[119.100841,33.047471],[119.038178,33.037136],[118.974864,33.056912],[118.944916,33.06037],[118.917084,33.055447],[118.894786,33.06212],[118.860281,33.094509],[118.845876,33.095038]]]}},{"type":"Feature","properties":{"river":"huaishui","rank":2},"geometry":{"type":"MultiLineString","coordinates":[[[118.743663,33.095038],[118.845876,33.095038]],[[116.521414,32.501247],[116.558116,32.533311],[116.634695,32.541815],[116.655772,32.561876],[116.730724,32.608995],[116.736339,32.628241],[116.729991,32.638536],[116.690684,32.669501],[116.699636,32.681912],[116.726166,32.68537],[116.725841,32.73546],[116.748057,32.736111],[116.759858,32.707709],[116.807628,32.689765],[116.854991,32.648708],[116.882823,32.632676],[116.918224,32.658026],[117.010753,32.668036],[117.068126,32.689765],[117.078298,32.699083],[117.085867,32.766059],[117.104421,32.822292],[117.116222,32.837755],[117.137787,32.847683],[117.169688,32.851345],[117.174571,32.875922],[117.167735,32.916287],[117.195079,32.940497],[117.310964,32.943549],[117.408295,32.963202],[117.527192,32.971137],[117.542084,32.965399],[117.57724,32.932888],[117.647472,32.903266],[117.660574,32.919867],[117.688487,32.985175],[117.740001,33.015896],[117.752371,33.045274],[117.763601,33.054063]],[[119.616222,32.353949],[119.591319,32.357978],[119.533783,32.347602],[119.514089,32.355048],[119.510265,32.410956],[119.47047,32.475409],[119.47169,32.53205],[119.434174,32.58865],[119.423595,32.628363],[119.389171,32.652777],[119.36671,32.656928],[119.331065,32.652859],[119.306733,32.661566],[119.28419,32.718288]]]}},{"type":"Feature","properties":{"river":"xiangshui","rank":3},"geometry":{"type":"LineString","coordinates":[[110.616954,25.48786],[110.651134,25.508368],[110.674327,25.533474],[110.687999,25.536322],[110.706472,25.57807],[110.685313,25.597724],[110.678803,25.627997],[110.691987,25.6588],[110.739268,25.713813],[110.770763,25.737982],[110.826915,25.755072],[110.845307,25.771064],[110.893321,25.843817],[110.943777,25.87226],[110.95517,25.886501],[110.972585,25.878933],[110.994151,25.889716],[111.006847,25.906846],[111.014171,25.899441],[111.040945,25.899441],[111.04835,25.920478],[111.088634,25.940375],[111.087576,25.966824],[111.096121,25.988796],[111.117686,26.0067],[111.1303,26.001776],[111.160818,26.021104],[111.166515,26.041205],[111.198009,26.092231],[111.260671,26.265082],[111.283214,26.273139],[111.285655,26.283311],[111.273692,26.303494],[111.332042,26.32392],[111.380056,26.318874],[111.390391,26.331366],[111.404552,26.317165],[111.422862,26.32331],[111.438243,26.309638],[111.472341,26.312079],[111.479747,26.32392],[111.487234,26.32392],[111.495942,26.302924],[111.514415,26.290391],[111.527436,26.303494],[111.567882,26.271999],[111.59075,26.270575],[111.607188,26.307725],[111.590261,26.350775],[111.604015,26.389431],[111.604096,26.407904],[111.582123,26.433783],[111.616954,26.467963],[111.637299,26.515733],[111.678315,26.543647],[111.698416,26.571885],[111.713145,26.577826],[111.701671,26.596544],[111.705658,26.611355],[111.739838,26.571601],[111.740326,26.550482],[111.75172,26.556667],[111.753998,26.584662],[111.765391,26.595893],[111.798106,26.598253],[111.811046,26.577908],[111.825694,26.584662],[111.846609,26.581326],[111.863292,26.598253],[111.870128,26.556708],[111.863292,26.519477],[111.868582,26.506456],[111.879649,26.511339],[111.890636,26.529364],[111.900645,26.52558],[111.927745,26.501044],[111.951752,26.465115],[111.966319,26.454901],[111.984874,26.454779],[112.048839,26.467963],[112.048839,26.474799],[112.034679,26.482204],[112.048595,26.496934],[112.11378,26.495876],[112.133067,26.501085],[112.172374,26.543647],[112.189382,26.548692],[112.212983,26.548367],[112.229096,26.541205],[112.223643,26.526313],[112.187266,26.501817],[112.180675,26.488552],[112.199148,26.474799],[112.2199,26.472032],[112.276866,26.480333],[112.300385,26.508612],[112.302745,26.564154],[112.316905,26.57685],[112.360281,26.556708],[112.375662,26.563747],[112.396902,26.593451],[112.411388,26.598253],[112.431895,26.57038],[112.448741,26.562323],[112.462901,26.564154],[112.474294,26.567328],[112.483409,26.584662],[112.5206,26.577826],[112.570893,26.606716],[112.619884,26.614203],[112.627533,26.622992],[112.630463,26.659735],[112.677257,26.75141],[112.657319,26.757392],[112.610606,26.755927],[112.589936,26.768826],[112.583507,26.789578],[112.591563,26.808905],[112.648692,26.827663],[112.665701,26.858344],[112.616466,26.885077],[112.610606,26.903347],[112.61614,26.922634],[112.642507,26.953681],[112.651541,26.975653],[112.653412,27.016059],[112.660574,27.026679],[112.682384,27.0303],[112.697683,27.021918],[112.716563,26.989936],[112.740326,26.989325],[112.757498,27.00198],[112.759858,27.021023],[112.728282,27.082953],[112.748464,27.091742],[112.788829,27.091742],[112.807872,27.101915],[112.80421,27.133002],[112.840017,27.145453],[112.847585,27.160468],[112.844005,27.201606],[112.861095,27.235175],[112.920909,27.286444],[112.93214,27.32449],[112.908946,27.385362],[112.904796,27.410183],[112.913503,27.423367],[112.973643,27.448594],[113.00058,27.399359],[113.024669,27.393378],[113.044526,27.399726],[113.035167,27.454861],[113.063975,27.479275],[113.107188,27.495551],[113.138194,27.517198],[113.131358,27.557888],[113.111827,27.592149],[113.103445,27.636746],[113.124034,27.714911],[113.110769,27.76614],[113.117686,27.794379],[113.134532,27.810411],[113.137625,27.821357],[113.13087,27.841132],[113.083018,27.859565],[113.062918,27.852118],[113.016612,27.851426],[112.944591,27.802802],[112.925304,27.797431],[112.903819,27.800564],[112.891368,27.811306],[112.884288,27.848944],[112.893484,27.862331],[112.953217,27.906684],[112.99114,27.958441],[112.950043,28.007921],[112.93214,28.044501],[112.930431,28.068386],[112.959483,28.201524],[112.960867,28.244656],[112.954275,28.27912],[112.936941,28.3074],[112.870942,28.356635],[112.844005,28.385688],[112.766124,28.507514],[112.762706,28.545111],[112.802419,28.572089],[112.810313,28.588935],[112.805186,28.626166],[112.795665,28.639716],[112.776541,28.649929],[112.755789,28.651394],[112.713634,28.639716],[112.711192,28.674425],[112.793875,28.717312],[112.826671,28.766628],[112.873627,28.776882],[112.884288,28.794257],[112.892996,28.857978],[112.879405,28.935248],[112.884288,28.955675],[112.896495,28.971544],[112.982188,29.03502],[113.010916,29.068671],[113.018077,29.08865],[113.013438,29.110541],[112.993582,29.147488]]}},{"type":"Feature","properties":{"river":"huaishui","rank":2},"geometry":{"type":"MultiLineString","coordinates":[[[113.72047,32.416042],[113.727306,32.423448],[113.738048,32.416612],[113.765147,32.423448],[113.796153,32.409776],[113.804617,32.425727],[113.850678,32.409776],[113.883067,32.318874],[113.901785,32.311469],[113.905935,32.303331],[113.899343,32.276679],[113.930186,32.264716],[113.953624,32.241319],[113.968028,32.252143],[113.98406,32.242784],[114.003998,32.241645],[114.021007,32.249945],[114.033621,32.280829],[114.062429,32.310167],[114.071788,32.36579],[114.084565,32.39704],[114.104015,32.409776],[114.102957,32.426378],[114.113373,32.44245],[114.130382,32.449815],[114.182058,32.410753],[114.204682,32.406033],[114.213878,32.409776],[114.237722,32.389472],[114.310069,32.360785],[114.341319,32.329901],[114.364757,32.286241],[114.382335,32.292426],[114.44044,32.278835],[114.490245,32.300482],[114.521902,32.287706],[114.552745,32.301703],[114.573741,32.306749],[114.604096,32.303046],[114.622651,32.312567],[114.658946,32.313585],[114.659679,32.287421],[114.678233,32.292589],[114.717296,32.31977],[114.787608,32.29682],[114.823253,32.305854],[114.880382,32.292751],[114.930756,32.270819],[114.94752,32.27265],[114.981619,32.299913],[115.004649,32.292751],[115.033376,32.29324],[115.07724,32.306749],[115.108897,32.368598],[115.12558,32.35456],[115.165457,32.356472],[115.193858,32.334052],[115.211436,32.341986],[115.224864,32.333808],[115.245128,32.347113],[115.288503,32.351345],[115.348643,32.3817],[115.367198,32.397569],[115.351003,32.409776],[115.351003,32.416042],[115.361095,32.421698],[115.371349,32.423285],[115.392589,32.409776],[115.42628,32.434394],[115.530203,32.401068],[115.564464,32.409776]],[[115.564464,32.402371],[115.60906,32.416287],[115.630951,32.413275],[115.646414,32.402371],[115.687104,32.46662],[115.693614,32.491767],[115.741628,32.479112],[115.754487,32.498155],[115.789806,32.470649],[115.808116,32.503282],[115.843191,32.542426],[115.884288,32.571601],[115.920014,32.574286],[115.989268,32.610622],[116.002045,32.604682],[116.026866,32.574734],[116.107188,32.524441],[116.112071,32.500434],[116.136974,32.457587],[116.150971,32.438666],[116.174083,32.429633],[116.242931,32.46072],[116.257091,32.496405],[116.271658,32.511786],[116.28948,32.51907],[116.313731,32.512763],[116.346446,32.478583],[116.440929,32.436469],[116.481293,32.445095],[116.521414,32.501247]]]}},{"type":"Feature","properties":{"river":"jialing","rank":3},"geometry":{"type":"LineString","coordinates":[[106.881602,34.207953],[106.874766,34.197455],[106.858653,34.196234],[106.826427,34.20421],[106.757904,34.146999],[106.724132,34.081326],[106.687511,34.049099],[106.681733,34.025458],[106.6421,33.965196],[106.601492,33.946234],[106.510916,33.924669],[106.47698,33.902533],[106.435557,33.856391],[106.424083,33.834906],[106.376964,33.824571],[106.354015,33.800727],[106.312592,33.795844],[106.276296,33.735297],[106.256114,33.739691],[106.223725,33.759141],[106.21046,33.739325],[106.209483,33.7237],[106.223888,33.672553],[106.220307,33.666693],[106.175955,33.628852],[106.070079,33.573432],[106.022227,33.51496],[106.019786,33.503119],[106.038585,33.474189],[106.0678,33.378974],[106.081065,33.357856],[106.121755,33.345282],[106.136322,33.335761],[106.142345,33.322292],[106.128184,33.27497],[106.082286,33.22366],[106.052419,33.204901],[106.060557,33.16295],[106.056895,33.141872],[106.045502,33.129177],[106.100841,33.080756],[106.072276,33.00373],[106.059255,32.985175],[105.956716,32.933376],[105.953543,32.916205],[105.922537,32.895819],[105.914561,32.880968],[105.922537,32.844591],[105.935802,32.824083],[105.92685,32.771064],[105.935802,32.744981],[105.910167,32.744452],[105.901541,32.724473],[105.901541,32.686632],[105.893077,32.656073],[105.881114,32.642524],[105.853282,32.54975],[105.860606,32.491767],[105.836518,32.445828],[105.81544,32.427069],[105.79184,32.423448],[105.805431,32.395535],[105.750662,32.38703],[105.737071,32.375027],[105.709076,32.31977],[105.737804,32.303778],[105.716726,32.286241],[105.715424,32.272732],[105.729747,32.23786],[105.723643,32.223741],[105.737722,32.205105],[105.716726,32.190701],[105.688731,32.149115],[105.711681,32.142849],[105.715424,32.12877],[105.716726,32.093858],[105.695567,32.080837],[105.709239,32.06684],[105.695567,32.052924],[105.723562,32.032416],[105.72755,32.010606],[105.749766,31.992377],[105.743337,31.943061],[105.757742,31.950141],[105.784923,31.943061],[105.812755,31.964179],[105.822846,31.940863],[105.805431,31.922553],[105.853282,31.908881],[105.845876,31.884711],[105.838878,31.876288],[105.825857,31.874132],[105.835053,31.860297],[105.833425,31.84748],[105.869151,31.858344],[105.881114,31.854926],[105.873139,31.82335],[105.8921,31.799384],[105.921153,31.789374],[105.943289,31.799628],[105.943858,31.780463],[105.933849,31.749091],[105.956716,31.737616],[105.940115,31.723578],[105.938731,31.708564],[105.963145,31.6824],[105.935802,31.6824],[105.943289,31.669298],[105.931651,31.657253],[105.928803,31.641384],[105.934255,31.635443],[105.956716,31.635199],[105.963145,31.586778],[105.97047,31.573106],[106.008067,31.614691],[106.059255,31.568671],[106.064138,31.552354],[106.060802,31.537787],[106.030691,31.525214],[106.021007,31.511339],[106.020112,31.497423],[106.035248,31.491156],[106.038097,31.483751],[106.039806,31.448513],[106.0206,31.400255],[106.065115,31.385199],[106.073009,31.367703],[106.134939,31.354031],[106.134939,31.347195],[106.117279,31.337917],[106.114757,31.321723],[106.12322,31.310655],[106.197032,31.361436],[106.213878,31.32628],[106.236827,31.326687],[106.258556,31.308173],[106.270925,31.281684],[106.267833,31.26789],[106.240489,31.227118],[106.211436,31.211249],[106.230479,31.203192],[106.243337,31.207139],[106.261241,31.165961],[106.292003,31.144843],[106.296641,31.131863],[106.326182,31.134874],[106.346202,31.120307],[106.343435,31.083075],[106.370697,31.077663],[106.39503,31.045518],[106.378184,31.033515],[106.312511,31.02501],[106.356863,30.985297],[106.34669,30.97663],[106.279063,31.01142],[106.256114,31.016669],[106.261729,30.996161],[106.271495,30.992377],[106.258311,30.965115],[106.240489,30.962266],[106.200206,30.970404],[106.188406,30.959744],[106.180756,30.912787],[106.161143,30.893663],[106.131277,30.836697],[106.09962,30.801947],[106.079682,30.761257],[106.115652,30.711249],[106.100841,30.696112],[106.088308,30.709337],[106.072195,30.714138],[106.058442,30.707302],[106.052419,30.685858],[106.057384,30.665717],[106.087413,30.672471],[106.107026,30.668769],[106.118907,30.649929],[106.106375,30.634711],[106.062999,30.620958],[106.066742,30.566352],[106.098399,30.574286],[106.100841,30.559516],[106.089366,30.531806],[106.107026,30.531602],[106.145112,30.553494],[106.155365,30.538398],[106.141694,30.483181],[106.11378,30.500759],[106.10377,30.499701],[106.090343,30.486884],[106.095307,30.477851],[106.148529,30.449652],[106.152761,30.465155],[106.164561,30.463446],[106.177013,30.450466],[106.185964,30.413113],[106.19337,30.411566],[106.210704,30.435981],[106.230479,30.387559],[106.243175,30.375352],[106.279063,30.360297],[106.250418,30.339789],[106.264903,30.327704],[106.268565,30.305365],[106.257823,30.264716],[106.236827,30.285183],[106.203217,30.203233],[106.205496,30.189724],[106.233653,30.178412],[106.235037,30.170844],[106.216889,30.14057],[106.22991,30.136908],[106.249522,30.15412],[106.264659,30.154853],[106.26295,30.133409],[106.268484,30.124945],[106.285167,30.134345],[106.289561,30.123847],[106.270925,30.09337],[106.309581,30.085557],[106.31544,30.07099],[106.309662,30.028388],[106.303152,30.020819],[106.27589,30.01435],[106.273204,29.99726],[106.285167,29.989691],[106.295828,30.002061],[106.319021,30.002061],[106.337494,29.989325],[106.333018,29.962999],[106.362071,29.946885],[106.426362,29.853461],[106.520112,29.769477],[106.523529,29.721381],[106.516694,29.703437],[106.501231,29.695502],[106.470795,29.705878],[106.456391,29.704291],[106.450206,29.685329],[106.463878,29.654568],[106.458507,29.637519],[106.463878,29.627265],[106.459239,29.595567],[106.497813,29.577094],[106.550222,29.573269],[106.586843,29.585639]]}},{"type":"Feature","properties":{"river":"huanghe","rank":1},"geometry":{"type":"MultiLineString","coordinates":[[[97.762787,35.08808],[97.746104,35.079413],[97.733165,35.055203],[97.713634,34.953192],[97.697276,34.919867],[97.617686,34.885077],[97.545909,34.876003]],[[97.288178,34.835476],[97.234304,34.907294],[97.12379,34.943427],[97.072032,34.930609]]]}},{"type":"Feature","properties":{"river":"huanghe","rank":1},"geometry":{"type":"MultiLineString","coordinates":[[[96.164154,35.129665],[96.249278,35.109198],[96.483165,35.105658],[96.53419,35.096137],[96.654877,35.050116],[96.705496,35.047716],[96.81129,35.061347],[96.829275,35.0539],[96.867931,35.0185],[96.889903,35.006781],[96.97462,34.991645],[96.986746,34.975694],[96.994884,34.94835],[97.015391,34.937445],[97.072032,34.930609]],[[97.762787,35.08808],[97.795909,35.111111],[97.848888,35.11225],[97.951752,35.096137],[97.991628,35.080593],[98.042979,35.012315],[98.124441,34.937038],[98.137299,34.893378],[98.263682,34.860785],[98.284679,34.842108],[98.34962,34.827989],[98.37794,34.815294],[98.391775,34.79682],[98.396251,34.773627],[98.401459,34.649278],[98.380951,34.619167],[98.326671,34.598171],[98.329845,34.574774],[98.345144,34.563259],[98.394786,34.547431],[98.413503,34.526638],[98.466319,34.492214],[98.466319,34.472357],[98.479991,34.458686],[98.490164,34.424384],[98.51474,34.40119],[98.627371,34.357449],[98.709727,34.355048],[98.724294,34.368598],[98.723643,34.454942],[98.78297,34.451239],[98.836925,34.479193],[98.867931,34.478705],[98.928233,34.45307],[98.952891,34.458686],[98.986501,34.430772],[99.002045,34.436876],[99.016205,34.432644],[99.04184,34.410264],[99.056082,34.410264],[99.069591,34.362494],[99.037852,34.300645],[99.034923,34.270046],[99.041596,34.243516],[99.067556,34.205024],[99.075776,34.153347],[99.064382,34.132595],[99.048595,34.071357],[99.050385,34.034776],[99.067393,33.998847],[99.062266,33.971462],[99.081472,33.966824],[99.096772,33.950141],[99.110606,33.913398],[99.17213,33.875841],[99.248057,33.784369],[99.306163,33.746609],[99.361095,33.746161],[99.376882,33.752753],[99.392019,33.783962],[99.378184,33.814399],[99.395274,33.827216],[99.480479,33.818468],[99.525483,33.802802],[99.542003,33.773464],[99.569347,33.765977],[99.645763,33.765652],[99.658702,33.769721],[99.703298,33.806952],[99.771495,33.799994],[99.814952,33.778388],[99.837006,33.775662],[99.885916,33.746161],[99.905772,33.718207],[99.999115,33.675645],[100.015636,33.663601],[100.022472,33.643134],[100.064138,33.610907],[100.080089,33.587917],[100.158946,33.574246],[100.175955,33.594672],[100.237804,33.632514],[100.288666,33.691514],[100.286143,33.706488],[100.254649,33.746161],[100.240896,33.738715],[100.245616,33.760321],[100.267182,33.761908],[100.316742,33.746161],[100.323334,33.757595],[100.357839,33.756415],[100.421641,33.796739],[100.449148,33.806098],[100.479991,33.829535],[100.564952,33.854804],[100.632091,33.910468],[100.663992,33.925564],[100.766043,33.928168],[100.782237,33.924262],[100.814545,33.879828],[100.830577,33.883328],[100.850352,33.833564],[100.869884,33.807969],[100.8921,33.79328],[100.899506,33.806952],[100.903901,33.789618],[100.926199,33.786444],[100.928722,33.770941],[100.912527,33.759141],[100.958995,33.738064],[100.97991,33.737494],[100.995697,33.751736],[101.000662,33.726589],[101.016531,33.7296],[101.034434,33.771755],[101.034434,33.791083],[101.01474,33.84044],[101.018321,33.871934],[101.034597,33.87698],[101.074229,33.861599],[101.111827,33.861599],[101.139089,33.844428],[101.182872,33.786078],[101.236257,33.75963],[101.288178,33.711371],[101.323334,33.718207],[101.335541,33.708197],[101.376557,33.69713],[101.389659,33.676622],[101.408376,33.682196],[101.417735,33.694525],[101.454275,33.684109],[101.483897,33.700385],[101.508718,33.704779],[101.54005,33.697781],[101.563406,33.680447],[101.606619,33.670193],[101.687022,33.682318],[101.753673,33.680243],[101.837576,33.605984],[101.851736,33.572943],[101.8838,33.54621],[101.892589,33.526435],[101.885753,33.497423],[101.889171,33.488552],[101.974539,33.40351],[102.009288,33.376288],[102.09669,33.339911],[102.174327,33.334581],[102.221121,33.369737],[102.266531,33.419013],[102.321381,33.406602],[102.333507,33.41352],[102.35198,33.40351],[102.385916,33.409735],[102.439382,33.448513],[102.461843,33.457546],[102.454194,33.471788],[102.481619,33.464952],[102.458507,33.498725],[102.452729,33.523261],[102.45989,33.541571],[102.476085,33.533271],[102.481619,33.540066],[102.413259,33.577948],[102.402599,33.594021],[102.355724,33.60932],[102.324474,33.653347],[102.331391,33.697781],[102.342865,33.725124],[102.334727,33.735622],[102.304861,33.720242],[102.290457,33.725043],[102.324474,33.751736],[102.299327,33.780707],[102.247081,33.797553],[102.243744,33.806952],[102.248464,33.816352],[102.263927,33.826036],[102.194347,33.919257],[102.166515,33.945828],[102.132823,33.965196],[102.109955,33.953721],[102.069591,33.968451],[102.050304,33.957831],[102.027192,33.979071],[101.98642,34.000271],[101.943451,34.010565],[101.913097,33.999376],[101.858409,34.03974],[101.816417,34.060167],[101.803233,34.075059],[101.785085,34.066189],[101.759532,34.072699],[101.737315,34.088813],[101.72877,34.108588],[101.718435,34.103298],[101.707612,34.116034],[101.646983,34.135932],[101.635753,34.145209],[101.639252,34.15705],[101.614757,34.178249],[101.611339,34.191189],[101.529389,34.218451],[101.488455,34.218451],[101.46339,34.230333],[101.323334,34.259467],[101.265717,34.297309],[101.233979,34.300727],[101.222341,34.335273],[101.197276,34.34516],[101.194265,34.396023],[101.173839,34.396023],[101.165701,34.406358],[101.163992,34.443223],[101.139659,34.49962],[101.060557,34.505886],[101.042491,34.524197],[101.020518,34.530097],[101.001964,34.54682],[100.928966,34.551825],[100.91684,34.595771],[100.885834,34.649848],[100.870616,34.708808],[100.861339,34.718126],[100.835867,34.714911],[100.763438,34.677843],[100.696788,34.670966],[100.674815,34.675727],[100.635671,34.692898],[100.618256,34.691474],[100.573985,34.739814],[100.539561,34.758083],[100.49464,34.805487],[100.447195,34.818956],[100.336355,34.833848],[100.316742,34.883246],[100.288666,34.917344],[100.285818,34.984565],[100.254649,35.027208],[100.249034,35.04621],[100.249034,35.089219],[100.240896,35.109198],[100.247651,35.13288],[100.247162,35.173611],[100.238455,35.214911],[100.22047,35.240668],[100.261974,35.274766],[100.271251,35.295437],[100.2199,35.316433],[100.205333,35.330634],[100.203705,35.349799],[100.214285,35.378445],[100.193126,35.370958],[100.191173,35.402289],[100.131114,35.466579],[100.158946,35.483954],[100.158946,35.51496],[100.166433,35.532782],[100.207612,35.574042],[100.240652,35.661689],[100.295828,35.751288],[100.296153,35.771674],[100.348399,35.774766],[100.371186,35.798407],[100.390554,35.800564],[100.447032,35.77912],[100.444347,35.818183],[100.455089,35.829657],[100.497081,35.841579],[100.543061,35.888983],[100.590912,35.888983],[100.637787,35.913113],[100.6421,35.936143],[100.72047,35.989081],[100.72755,36.001288],[100.730886,36.052802],[100.74171,36.070868],[100.815929,36.13227],[100.842377,36.140082],[100.900971,36.132758],[100.9581,36.140245],[101.004893,36.132432],[101.038015,36.144843],[101.064138,36.14643],[101.0796,36.139675],[101.091807,36.100898],[101.105479,36.100938],[101.150645,36.119574],[101.16627,36.118476],[101.189057,36.103787],[101.191173,36.087592],[101.262136,36.091173],[101.327078,36.061591],[101.392019,36.051093],[101.456472,36.057725],[101.478526,36.065945],[101.631277,36.153998],[101.666433,36.181586],[101.697195,36.184353],[101.782725,36.146064],[101.839936,36.140652],[101.913097,36.086982],[101.912852,36.068427],[101.958425,36.053249],[101.947765,36.038601],[101.985606,36.020819],[102.016124,35.991563],[102.036632,35.956122],[102.044037,35.919379],[102.07073,35.885281],[102.073985,35.855251],[102.098888,35.830146],[102.121511,35.827094],[102.163585,35.833767],[102.246104,35.874701],[102.345144,35.874701],[102.441498,35.887763],[102.506277,35.86168],[102.554861,35.857042],[102.604584,35.842108],[102.704845,35.839464],[102.735037,35.830349],[102.759532,35.83751],[102.787201,35.859931],[102.837332,35.860663],[102.858897,35.85696],[102.872569,35.846259],[102.899506,35.84988],[103.009207,35.825792],[103.116466,35.778184],[103.133311,35.781114],[103.138194,35.791612],[103.18629,35.817084],[103.22934,35.825507],[103.244558,35.839667],[103.28712,35.853827],[103.30421,35.863878],[103.317312,35.885199],[103.359304,35.911689],[103.270518,35.938422],[103.242931,35.955675],[103.203624,35.961453],[103.188731,35.976508],[103.189138,35.989773],[103.261322,36.065619],[103.392345,36.131049],[103.454845,36.18891],[103.502615,36.182074],[103.541026,36.134223],[103.554454,36.126817],[103.610444,36.145209],[103.646251,36.146511],[103.667735,36.133653],[103.698416,36.098904],[103.748953,36.094672],[103.876475,36.064643],[103.921804,36.060981],[104.034679,36.078477],[104.043956,36.088935],[104.040701,36.123725],[104.047944,36.136501],[104.023367,36.147895],[104.018647,36.182237],[104.047944,36.205024],[104.126964,36.243516],[104.140147,36.277045],[104.157237,36.299994],[104.232595,36.368354],[104.259532,36.378689],[104.345144,36.390326],[104.399018,36.439399],[104.420014,36.450507],[104.493907,36.459662],[104.546153,36.503445],[104.607921,36.528998],[104.638927,36.571641],[104.694916,36.592963],[104.710378,36.606024],[104.709239,36.664618],[104.722992,36.692247],[104.681244,36.723334],[104.668224,36.74376],[104.612804,36.772569],[104.592459,36.833116],[104.544363,36.847235],[104.527843,36.871934],[104.466238,36.890896],[104.44752,36.894884],[104.408702,36.882025],[104.393077,36.905829],[104.335948,36.900824],[104.328705,36.930528],[104.337494,37.006781],[104.298432,37.067247],[104.298595,37.079657],[104.317149,37.122626],[104.359793,37.134833],[104.338796,37.147895],[104.305919,37.157009],[104.311046,37.16824],[104.323985,37.17654],[104.346121,37.168972],[104.438975,37.203437],[104.469656,37.195665],[104.492686,37.208564],[104.578217,37.324083],[104.603119,37.339667],[104.678966,37.344102],[104.745616,37.371121],[104.800955,37.37169],[104.819021,37.377875],[104.856944,37.407823],[104.938731,37.408515],[104.992605,37.44245],[104.997325,37.473253],[105.011485,37.476833],[105.052419,37.453559],[105.11671,37.487006],[105.137218,37.48017],[105.188487,37.487006],[105.229991,37.48017],[105.274669,37.494452],[105.573253,37.500678],[105.62794,37.524522],[105.69394,37.53559],[105.78419,37.568874],[105.876069,37.586046],[105.917979,37.642279],[105.94044,37.688015],[105.963145,37.774441],[105.963145,37.815985],[105.992686,37.885037],[106.029063,37.922227],[106.071056,37.95364],[106.121511,37.971462],[106.1692,38.007758],[106.220632,38.082302],[106.226329,38.127468],[106.244151,38.151801],[106.250418,38.185899],[106.278087,38.233262],[106.40797,38.36225],[106.517019,38.426866],[106.572765,38.526557],[106.535655,38.535346],[106.518565,38.573269],[106.540457,38.621446],[106.594249,38.666327],[106.575694,38.690253],[106.573171,38.710395],[106.604096,38.720974],[106.607921,38.751654],[106.648936,38.803534],[106.717784,38.858181],[106.840343,38.987616],[106.859386,39.013617],[106.866222,39.043158],[106.85377,39.077216],[106.881602,39.10456],[106.848155,39.163886],[106.819591,39.180487],[106.808035,39.19892],[106.799083,39.241726],[106.809093,39.309272],[106.788829,39.360907],[106.7588,39.385077],[106.749929,39.418809],[106.752452,39.465522],[106.778575,39.584337],[106.772472,39.62873],[106.785085,39.674628],[106.772472,39.693549],[106.751964,39.704169],[106.765636,39.762519],[106.751964,39.796658],[106.744558,39.854926],[106.710378,39.898993],[106.738292,39.919501],[106.730235,39.947781],[106.738048,39.971503],[106.709076,40.038113],[106.727143,40.062608],[106.858653,40.179755],[106.870128,40.183621],[106.874278,40.166571],[107.007091,40.257148],[107.02589,40.30268],[107.057872,40.33279],[107.128022,40.351508],[107.151541,40.376044],[107.158702,40.402045],[107.141694,40.453925],[107.169688,40.481879],[107.214366,40.499213],[107.220225,40.512397],[107.20517,40.540229],[107.203868,40.563788],[107.211843,40.582709],[107.2553,40.615587],[107.270763,40.637803],[107.322195,40.642279],[107.39503,40.66059],[107.440359,40.701606],[107.466563,40.709906],[107.513927,40.739203],[107.561453,40.73725],[107.583507,40.757432],[107.643972,40.774766],[107.706635,40.77143],[107.711436,40.786933],[107.699799,40.829779],[107.732432,40.851264],[107.758393,40.859483],[107.862071,40.8699],[107.885183,40.867499],[107.91627,40.850165],[107.95045,40.858588],[108.011974,40.858588],[108.086681,40.847724],[108.115001,40.851752],[108.1421,40.870551],[108.173269,40.879706],[108.19752,40.838731],[108.224213,40.817939],[108.240815,40.81391],[108.268891,40.826687],[108.306733,40.810818],[108.404796,40.820583],[108.437755,40.817003],[108.467296,40.793321],[108.484874,40.758979],[108.52825,40.739773],[108.550873,40.717963],[108.590831,40.661566],[108.670421,40.642646],[108.697195,40.612169],[108.713959,40.609931],[108.748057,40.617987],[108.766124,40.612169],[108.757091,40.58808],[108.763601,40.573188],[108.830007,40.54328],[108.842377,40.54328],[108.879405,40.563788],[108.891612,40.53498],[108.900401,40.529608],[108.929454,40.534369],[108.950694,40.522162],[108.989268,40.522773],[109.000255,40.526313],[109.004405,40.53498],[109.005626,40.556952],[109.02589,40.545193],[109.046641,40.556952],[109.049897,40.528673],[109.057872,40.52501],[109.087332,40.546658],[109.098155,40.547227],[109.122325,40.529608],[109.185069,40.520697],[109.207286,40.511908],[109.19752,40.488715],[109.222341,40.492051],[109.286713,40.522773],[109.279552,40.490424],[109.335134,40.487331],[109.396576,40.468207],[109.459483,40.489814],[109.472341,40.502305],[109.450043,40.504503],[109.430919,40.515326],[109.499034,40.529608],[109.50587,40.51671],[109.554454,40.54328],[109.590831,40.539984],[109.608328,40.550727],[109.665131,40.496772],[109.71339,40.475287],[109.749034,40.497829],[109.828054,40.515326],[109.883311,40.515326],[109.901378,40.52265],[109.952891,40.503974],[109.963634,40.508124],[109.972097,40.522773],[109.988292,40.511583],[110.023936,40.522773],[110.069021,40.515977],[110.08253,40.522773],[110.102306,40.505398],[110.122813,40.502875],[110.153331,40.515326],[110.167572,40.540229],[110.202566,40.539618],[110.223155,40.522773],[110.246104,40.474433],[110.286388,40.483913],[110.30364,40.481391],[110.293549,40.461371],[110.306651,40.453192],[110.355724,40.450792],[110.403412,40.420437],[110.430268,40.388495],[110.456391,40.397081],[110.467377,40.394599],[110.479096,40.372016],[110.506847,40.381374],[110.606049,40.31741],[110.658132,40.321804],[110.688487,40.305732],[110.779796,40.276068],[110.834402,40.273708],[110.879893,40.255316],[110.941335,40.253282],[110.964854,40.262641],[110.987397,40.261664],[111.034679,40.296902],[111.061046,40.267198],[111.184825,40.208116],[111.219737,40.172716],[111.302745,40.156073],[111.328298,40.11872],[111.369884,40.090847],[111.380789,40.057318],[111.39739,40.047919],[111.405365,40.025824],[111.411388,39.981553],[111.436534,39.917304],[111.435313,39.90644],[111.423432,39.895941],[111.397227,39.830756],[111.365245,39.777533],[111.359467,39.750434],[111.369884,39.721503],[111.417572,39.683661],[111.426768,39.658881],[111.463145,39.620185],[111.453624,39.617255],[111.425141,39.625312],[111.420909,39.52204],[111.372488,39.489081],[111.342377,39.444363],[111.316987,39.429389],[111.163992,39.423163],[111.134288,39.410509],[111.109874,39.385077],[111.150808,39.357123],[111.16684,39.364691],[111.184825,39.33043],[111.22462,39.310492],[111.226573,39.296942],[111.158214,39.172797],[111.117686,39.067328],[111.088634,39.042507],[110.99464,39.00377],[110.972585,38.974189],[111.00351,38.916083],[111.003429,38.902533],[110.994151,38.885281],[110.979991,38.816514],[110.948334,38.771104],[110.9428,38.739366],[110.91505,38.708441],[110.871511,38.621283],[110.875255,38.607489],[110.900645,38.58039],[110.896983,38.535346],[110.870128,38.501817],[110.85255,38.457099],[110.833751,38.445828],[110.792084,38.439561],[110.774018,38.426093],[110.746104,38.377712],[110.705089,38.354438],[110.67099,38.316921],[110.647472,38.305609],[110.589854,38.296698],[110.579275,38.287218],[110.568614,38.226874],[110.54713,38.210883],[110.510916,38.202094],[110.499604,38.166042],[110.509288,38.144965],[110.499604,38.090359],[110.514903,37.954901],[110.545095,37.949652],[110.576915,37.93126],[110.653087,37.813096],[110.674408,37.796169],[110.742686,37.764757],[110.752859,37.745673],[110.743744,37.732449],[110.705089,37.713568],[110.778901,37.67829],[110.794444,37.658311],[110.766612,37.637885],[110.766043,37.623969],[110.788585,37.561347],[110.76946,37.542344],[110.738455,37.469428],[110.696218,37.439399],[110.653331,37.433905],[110.636729,37.418158],[110.630056,37.396552],[110.633311,37.379218],[110.646251,37.367703],[110.687104,37.357123],[110.687511,37.342108],[110.664806,37.282172],[110.643565,37.274726],[110.633718,37.250841],[110.568614,37.178534],[110.536794,37.155382],[110.508718,37.101589],[110.478933,37.081651],[110.45989,37.051134],[110.417735,37.035183],[110.417735,37.027696],[110.445079,37.021511],[110.427257,37.010199],[110.389171,37.021837],[110.373057,37.017768],[110.372813,37.00727],[110.417979,36.967231],[110.412527,36.937527],[110.394786,36.906928],[110.369233,36.891181],[110.410818,36.849555],[110.403819,36.837266],[110.417735,36.816026],[110.397227,36.781317],[110.37672,36.775092],[110.417735,36.753974],[110.412201,36.753689],[110.417735,36.733507],[110.439057,36.742255],[110.44101,36.726426],[110.421153,36.692572],[110.392833,36.698554],[110.38974,36.688788],[110.482921,36.592882],[110.498546,36.524482],[110.495942,36.483995],[110.458751,36.349311],[110.472992,36.263699],[110.445079,36.185411],[110.446869,36.141791],[110.497488,35.9796],[110.510753,35.886786],[110.54127,35.883816],[110.560151,35.849148],[110.57545,35.71247],[110.611339,35.637722],[110.61964,35.597195],[110.602631,35.554226],[110.555919,35.50849],[110.562755,35.490749],[110.547455,35.438178],[110.523448,35.416571],[110.496186,35.403998],[110.458751,35.343126],[110.444835,35.335028],[110.424571,35.294135],[110.372569,35.255316],[110.335134,35.197943],[110.310476,35.090888],[110.29184,35.05036],[110.284597,35.00963],[110.259369,34.944688],[110.271007,34.913438],[110.272227,34.881456],[110.262706,34.851182],[110.242442,34.824897],[110.237234,34.801337],[110.241628,34.71894],[110.251964,34.663153],[110.269949,34.637274]],[[97.288178,34.835476],[97.301199,34.817979],[97.406342,34.817939],[97.437266,34.828437],[97.484955,34.871283],[97.546967,34.876003]]]}},{"type":"Feature","properties":{"river":"weishui","rank":2},"geometry":{"type":"LineString","coordinates":[[104.064952,34.986274],[104.071788,35.027208],[104.107351,35.045762],[104.124278,35.074774],[104.156505,35.086371],[104.197358,35.127956],[104.23406,35.139228],[104.271983,35.134101],[104.352957,35.109198],[104.438569,35.109198],[104.456716,35.104112],[104.503835,35.068183],[104.592459,35.057969],[104.668224,35.019802],[104.694916,34.992499],[104.72047,34.979112],[104.736501,34.927924],[104.729096,34.883246],[104.756358,34.828437],[104.784434,34.807196],[104.815684,34.815009],[104.846446,34.780829],[104.886485,34.757921],[104.93629,34.749457],[104.987641,34.754747],[105.031342,34.773383],[105.051524,34.792304],[105.066824,34.79446],[105.166026,34.778754],[105.195811,34.759711],[105.239757,34.752224],[105.340017,34.758409],[105.387706,34.753485],[105.49114,34.725531],[105.509939,34.699001],[105.531749,34.698269],[105.552175,34.718126],[105.563975,34.720079],[105.627533,34.714423],[105.742686,34.656928],[105.761485,34.626736],[105.833425,34.615749],[105.85019,34.605292],[105.870616,34.564805],[105.884695,34.560085],[105.987315,34.54682],[106.021658,34.568549],[106.069591,34.536322],[106.088878,34.556912],[106.141694,34.5338],[106.161713,34.531562],[106.210704,34.54682],[106.307058,34.521674],[106.486257,34.524034],[106.534679,34.490098],[106.595876,34.472846],[106.613862,34.458604],[106.626964,34.419501],[106.67628,34.382351],[106.764415,34.371365],[106.809093,34.373643],[106.895274,34.396023],[106.939708,34.389757],[106.980724,34.403428],[107.03183,34.389757],[107.073416,34.36933],[107.107432,34.377305],[107.137706,34.361396],[107.163585,34.356269],[107.296641,34.355048],[107.381277,34.33515],[107.454845,34.340644],[107.553233,34.300401],[107.634369,34.298122],[107.671153,34.310126],[107.738292,34.28738],[107.786632,34.280544],[107.816987,34.246405],[108.00172,34.232123],[108.087576,34.238959],[108.158946,34.216986],[108.183849,34.225898],[108.19573,34.219672],[108.231619,34.225898],[108.276378,34.20421],[108.368744,34.211697],[108.448416,34.208767],[108.497162,34.233913],[108.611827,34.245632],[108.690929,34.307888],[108.731944,34.320909],[108.842377,34.382351],[108.955984,34.414659],[108.995372,34.436306],[109.05421,34.45185],[109.074474,34.472357],[109.129242,34.458686],[109.172862,34.431952],[109.211192,34.4324],[109.242198,34.448106],[109.258881,34.486029],[109.286713,34.49962],[109.266368,34.527615],[109.328624,34.548041],[109.382335,34.532904],[109.399099,34.538113],[109.403412,34.554267],[109.450857,34.550401],[109.466075,34.565253],[109.502859,34.540635],[109.553233,34.519843],[109.583263,34.511664],[109.598074,34.51435],[109.612071,34.523871],[109.643891,34.57099],[109.661713,34.582872],[109.735606,34.574774],[109.755626,34.614366],[109.761241,34.617051],[109.777436,34.608222],[109.793956,34.622504],[109.815684,34.60456],[109.848399,34.616319],[109.86964,34.602078],[109.917491,34.622504],[109.925792,34.641181],[109.967459,34.645453],[109.976329,34.67121],[110.006277,34.636827],[110.071707,34.643622],[110.112722,34.670966],[110.223888,34.620307],[110.257742,34.614366],[110.293468,34.623155]]}},{"type":"Feature","properties":{"river":"huanghe","rank":1},"geometry":{"type":"MultiLineString","coordinates":[[[114.837576,35.019802],[114.84726,35.03795],[114.846772,35.081488],[114.864757,35.120469],[114.851329,35.178046],[114.864024,35.188585],[114.941417,35.218777],[115.002045,35.284735],[115.025971,35.332343],[115.067963,35.379991],[115.131847,35.397773],[115.150483,35.415798],[115.226329,35.416124],[115.248546,35.424506],[115.306814,35.475694],[115.340017,35.485053],[115.344737,35.496161],[115.330496,35.534369],[115.341319,35.555365],[115.383311,35.55744],[115.392589,35.572211],[115.394786,35.615749],[115.402843,35.630479],[115.491791,35.678087],[115.502452,35.69538],[115.503917,35.722724],[115.576182,35.722235],[115.617686,35.731147],[115.654714,35.746283],[115.680593,35.767768],[115.729747,35.83043],[115.76116,35.849148],[115.873546,35.865505],[115.885916,35.87755],[115.883718,35.887519],[115.858002,35.904242],[115.857921,35.916327],[115.919932,35.967719],[115.943777,35.979682],[115.954275,35.976589],[115.965424,35.985785],[116.033295,35.965684],[116.064138,36.040839],[116.091401,36.068142],[116.077729,36.109727],[116.119314,36.116523],[116.13974,36.150702],[116.198822,36.172553],[116.269623,36.240058],[116.311941,36.293321],[116.327891,36.30154],[116.410167,36.315212],[116.477061,36.355902],[116.530854,36.397732],[116.575043,36.414822],[116.597585,36.447577],[116.598643,36.467353],[116.578624,36.4796],[116.601654,36.494981],[116.605561,36.504421],[116.598562,36.514431],[116.633311,36.547919],[116.65683,36.582709],[116.736339,36.624294],[116.780772,36.702745],[116.858653,36.740343],[116.881114,36.742743],[116.937755,36.733507],[116.962576,36.720526],[116.992442,36.726671],[117.009939,36.747138],[117.070323,36.783311],[117.105724,36.796251],[117.133474,36.849555],[117.176199,36.898953],[117.189464,36.93419],[117.226329,36.961046],[117.235932,36.980536],[117.226573,37.009141],[117.237804,37.031033],[117.284923,37.059394],[117.345795,37.062527],[117.388113,37.073188],[117.552257,37.149237],[117.570811,37.16413],[117.597585,37.222357],[117.627045,37.254259],[117.648204,37.260118],[117.712332,37.247423],[117.760509,37.247423],[117.827403,37.272081],[117.890554,37.261746],[117.908214,37.26789],[117.962169,37.309516],[118.029796,37.327338],[118.06544,37.352078],[118.133474,37.357286],[118.207042,37.375271],[118.229421,37.396308],[118.222992,37.428656],[118.231537,37.450222],[118.29127,37.508124],[118.304779,37.576443],[118.328868,37.596381],[118.365245,37.606879],[118.519135,37.615668],[118.55421,37.626492],[118.585948,37.644639],[118.672862,37.718695],[118.68157,37.733466],[118.710053,37.749823],[118.758718,37.760281],[118.78655,37.774726],[118.860362,37.796169],[118.897065,37.824327],[118.917003,37.830634],[118.978038,37.79975],[119.003429,37.796251],[119.033214,37.802558]],[[110.269949,34.637274],[110.297862,34.621161],[110.37672,34.615749],[110.399669,34.592475],[110.410818,34.589057],[110.42213,34.590644],[110.437592,34.608913],[110.482921,34.615749],[110.530284,34.583604],[110.584483,34.600857],[110.64739,34.602078],[110.708425,34.620917],[110.718761,34.626288],[110.725841,34.642442],[110.765636,34.661241],[110.883474,34.666042],[110.922862,34.685736],[110.910574,34.732449],[110.933116,34.735175],[110.973155,34.716824],[110.989757,34.721869],[111.025483,34.747423],[111.109304,34.768622],[111.124278,34.778632],[111.138438,34.819159],[111.157644,34.82213],[111.222667,34.798529],[111.232595,34.800727],[111.245616,34.824246],[111.256602,34.827989],[111.284679,34.816352],[111.318858,34.837104],[111.342459,34.842312],[111.383474,34.821804],[111.421397,34.835476],[111.557384,34.863308],[111.569021,34.868964],[111.582123,34.896918],[111.603282,34.909939],[111.630463,34.958319],[111.678315,34.978827],[111.670339,34.997382],[111.682709,35.007839],[111.740652,35.018907],[111.763276,35.042344],[111.796153,35.051703],[111.829112,35.082465],[111.897472,35.096137],[111.915294,35.089911],[111.957449,35.094062],[112.058116,35.033393],[112.12558,35.023953],[112.151378,35.013536],[112.178966,34.970811],[112.240733,34.944688],[112.274832,34.965155],[112.288992,34.947781],[112.324474,34.941433],[112.384044,34.917344],[112.480235,34.906806],[112.490896,34.897976],[112.73406,34.808132],[112.779226,34.797919],[112.823253,34.800605],[112.912364,34.821804],[113.047374,34.831651],[113.089773,34.842312],[113.130382,34.860175],[113.19752,34.876288],[113.22698,34.931667],[113.24879,34.948554],[113.292491,34.951931],[113.329275,34.968777],[113.353608,34.972357],[113.497569,34.965155],[113.534109,34.979519],[113.665619,34.907538],[113.74822,34.890692],[113.789236,34.896918],[113.867768,34.87641],[113.905935,34.890692],[113.953868,34.896918],[113.977631,34.94127],[113.997813,34.949083],[114.062429,34.931667],[114.179454,34.935981],[114.303233,34.898464],[114.343842,34.901313],[114.378917,34.918484],[114.421641,34.924669],[114.509288,34.901923],[114.556407,34.917344],[114.577403,34.91767],[114.631602,34.896918],[114.646007,34.897528],[114.665619,34.909939],[114.707286,34.909939],[114.729991,34.920925],[114.781668,34.985867],[114.83074,35.019802]]]}}]}